Name,Phone,Website,Area,Address,City,Pincode,India,Image,Category,About
Schoolpage Tutorials                  ,N/A,N/A,Adipur,Ahmedabad 382345,Delhi, 382345,India,https://www.myprivatetutor.com/userfiles/centers/center1407740142.jpg,"Chemistry, English, Mathematics, Physics, IELTS, Spoken English, TOEFL, French, German, Hindi, Spanish","
	School Page is the outcome of a long quest to combine the latest in pedagogy, through its unique e-Tutoring (STS) methodology, with the best in technology, which makes it available to students from all over the world.While there are large numbers of great teachers available throughout the world, great teaching and great tutoring are very different in many ways and require very different approaches. There are also many differences between classroom teaching and off-school tutoring methodologies. With this in mind, the SchoolPage team worked with other global academics to create the unique SchoolPage e-Tutoring System (the STS), which is based on Richard E. Mayer’s ‘Cognitive Theory of Multimedia Learning’. The STS is a highly structured academic system. Through the use of a 9-stage lesson organizational structure, STS is used in every SchoolPage session ensuring better engagement, superior retention and rapid results. STS includes the use of cognitive tools such as Mind Mapping, self-diagnosis tools such as Comfort Boxes, and Learning Outcomes that are highly student centric.
	    "
Infobit Technologies                  ,N/A,N/A,Ashram Road,"26/a, 1st Floor, Ajanta Comm. Centre,
Above Oshval Restaurant,
Opp. Kalupur Comm. Bank,
Income Tax Crossroad, Ashram Road",Delhi, 380014,India,https://www.myprivatetutor.com/userfiles/centers/center1472817907.jpg,Android Training,"
	Infobit Technologies is a leader in the high end latest technologies IT education industry and ITES. Established in the year 1999, Infobit has providing Training on major global software vendors including Microsoft, Sun Microsystems, Oracle, Cisco. many others to deliver a comprehensive offering of courses. Information Technology is fast becoming the nerve center of any organization and from a global perspective, India has enormous strengths in terms of its skilled workforce, robust education system and responsive markets. As part of the globalization process, companies the world over are integrating themselves with the world economy; they are increasingly using the latest technologies to improve quality, enhance employee productivity as well as increase customer satisfaction."
Rnt Classes                  ,N/A,N/A,Ahmedabad University,"C-103, Belveder, Godrej Garden City, Jagatpur, Ahmedabad, India, 382470",Delhi, 382470,India,,"Chemistry, Mathematics, Physics, AIEEE, CET, IIT JEE Mains","
	The institute RNT classes has established keeping the view of providing high quality education & training to clear the concept in the subjects to crash/top the prestigious competitive exams of india & abroad and to get rank in 12th exam or class room exams. Keeping the vision, the institute has been started by er. Madhav kishore (b.tech-mechanical engineering) Madhav kishore has qualified AIEEE-all india engineering entrance examination, Qualified GATE conducted by IITs for m.tech program Madhav kishore is having rich experience of more than 3 years of tutoring student of iit jee & state boards. The basic strategy that he has followed to teach the students are: - systematic contents - fixed program - daily practice set (dps) - key notes - regular exams - doubt clearing session - quick review of topics The institute has just been started, till date Er. Madhav kishore was teaching students in different coaching centres in bangalore, delhi, at home. Now he has set to launched his own coaching centre in ahmedabad."
Shine Academy                  ,N/A,N/A,Akhbarnagar,"A/63, Bhaktinagar Society, Nr. Nakshatra Mall, I.O.C.Road, Chandkheda,",Delhi, 382424,India,,"Business English, Corporate Communication, Effective Communication, IELTS, Public Speaking, Spoken English, TOEFL, GRE, PTE, SAT","
	We have been educating students for last 16 years in the field of IELTS, TOEFL, Spoken English, PTE and GRE. Even we provide assistance and consultation for Student Visa, P.R. and Tourist visa."
Irise Learning & Performance Enhancers                  ,N/A,N/A,Chandkheda,"IRise Learning & Performance Enhancers
E2 - 205 (2nd Floor), Aaron Elegance,
Above Indian Bank,
New CG Road,
Chandkheda",Delhi, 382424,India,,"Corporate Communication, IELTS, Public Speaking, Spoken English, TOEFL","IRise Learning & Performance Enhancers
E2 - 205 (2nd Floor), Aaron Elegance,
Above Indian Bank,
New CG Road,
Chandkheda"
Wing Chun Kung Fu Academy                  ,N/A,N/A,Anand Nagar,"C/202, Popular Paradise, Sarkhej Gandhinagar Highway, Ahmedabad - 380055, Near Gota Cross Road, Behind Vishwas City 5",Delhi, 380055,India,,"Boxing, Karate, Kung Fu","
	Wing Chun is a Chinese Kung Fu style developed 300 years ago by a lady warrior monk - to defeat bigger, stronger opponents No fancy move but a graceful fighting art Simple & effective - can be used by males and females of all ages and sizes Emphasizes superiority of technique & skill rather than brute strength Surprisingly simple & easy to learn in a very short time Minimum energy spent for maximum output Simultaneous attack & defence Practical real life situation training Building natural reflection no brutal force of body conditioning require No high kicks and no flying kicks Practical Kicks which can be applicable to fight and can be practice by all age."
Biology Institute                  ,N/A,N/A,Maninagar,"Maninagar East, Ahmedabad, 380008",Delhi, 380008,India,,Biology,"
	Biology Institute as an institute is located in Ahmedabad. We cater in biology education for school level and higher education. We provide not only theoretical education but also the practical knowledge to the students."
Pranshi Career Academy                  ,N/A,N/A,Ghatlodia,"144, ARATI SOCIETY, NR. SWAMINARAYAN TEMPLE, K  K NAGAR ROAD, GHATLODIA, AHMEDABAD - 380061",Delhi, 380061,India,,"IBPS, Insurance Exams, Police Department Exam, Railways Exams, SSC Exams","
	Pranshi Career Academy has emerged as one of the most reputed competitive exam training institute. Banking sector in India has always been one of the most preferred destinations for employment. In this decade, this sector has emerged as a sunrise sector in the Indian economy. The Banking Industry is recruiting in a big way. We provide an interactive and collaborative educational environment that strengthens learning, provides credentialing opportunities, and contributes to educational and professional grow."
Uni Education Services                  ,N/A,N/A,Vastrapur,"C2-Sutirth Apartment Basement, Opp. Sanjeevani Hospital, Vastrapur Lake, Vastrapur, Ahmedabad, 380015",Delhi, 380015,India,,"French, Latin, Spanish","U'n'I Education Services is promised to provide Spanish language services to corporate, schools, language institutions and direct students offering set of services i.e. corporate training in Spanish language, interpretation and translation services, specially designed courses for schools to learn Spanish and 3 different courses for learning Spanish to direct students."
Brain Academy                  ,N/A,N/A,Prahlad Nagar,"F-2, Sarjan-2, Above TVS Showroom, Opposite To Madhur Hall, Anandnagar Cross Road, Satellite, Ahmedabad",Delhi, 380015,India,,Arts & Crafts,"
	Brain Academy is one of the finest institute in Ahmedabad. At Brain Academy all activities done at one center."
Gravity Career Institute                  ,N/A,N/A,Airport,"Sargasan, Gandhinager, Ahmedabad, Gujarat, 380026",Delhi, 380026,India,,"AIEEE, IIT JEE Mains","
	A synonym with quality education has brought a paradigm shift in the education sector of India. We have innovated new educational methodology and demonstrated extraordinary results in all targeted segments. Our every centre has same curriculum, same teaching methodology, same study material, same working system, same testing & monitoring mechanism followed."
Saamarthya                  ,N/A,N/A,South Bopal,"E- 204, Safal Parisar 2, Near SOBO Centre, South Bopal, Ahmedabad",Delhi, 380058,India,,"Learning Disabilities, Slow Learners","E- 204, Safal Parisar 2, Near SOBO Centre, South Bopal, Ahmedabad"
Music Room                  ,N/A,N/A,Bopal,"303 Sobo Center, South Bopal, Sp Ring Road",Delhi, 380058,India,,"Guitar, Keyboard","
	Music room is a place where u can develop musical skills. Our unique methodology which will make students more interested and will enhance their skill and creativity. We believe everyone has their own talent and here we are aiming for those who has target to be an expert musician."
Wirksam                  ,N/A,N/A,Maninagar,"31/A Vasant Nagar Soc.,
Gopal Chowk, Maninagar",Delhi, 380008,India,,German,"

		AC rooms 

		Intellectual methods of learning language and memorizing techniques
"
English House                  ,N/A,N/A,Satellite,"11, 1st Floor Akshar Dhara 2, Opp. Dhananjay Tower, 100ft. Ring Road, Satellite, Ahmedabad, Gujarat 380015",Delhi, 380015,India,,"Business English, Corporate Communication, Effective Communication, Public Speaking, Spoken English","
	English house harpal is the leading English Speaking institute in Ahmedabad, It offer dedicated courses to learn English from Basic level to Advance level with complete result guarantee."
Ashok Sir Ielts Training                  ,N/A,N/A,Bapunagar,"1st And 2nd Floor, Sukhsagar Complex, Near Shyam Shikhar Complex, Bapunagar, Ahmedabad, 380024",Delhi, 380024,India,https://www.myprivatetutor.com/userfiles/centers/center146252104216075.jpg,"Corporate Communication, IELTS, Spoken English","1st And 2nd Floor, Sukhsagar Complex, Near Shyam Shikhar Complex, Bapunagar, Ahmedabad, 380024"
Shiksha Universe                  ,N/A,N/A,Adipur,"114, Siddhi Vinayak Complex, Oppositie Reliance Petrol Pump, Tagore Road, Gandhidham/Adipur, Kutch (gujurat)India, 370201.",Delhi, 370201,India,https://www.myprivatetutor.com/userfiles/centers/center146253831916072.jpg,"GMAT, IELTS, PTE, TOEFL","114, Siddhi Vinayak Complex, Oppositie Reliance Petrol Pump, Tagore Road, Gandhidham/Adipur, Kutch (gujurat)India, 370201."
Read Aloud                  ,N/A,N/A,New C G Road,"130, Sahyog Complex, Below Sakar English Medium School, New C.g Road, Chandkheda,",Delhi, 382424,India,,English,"

		Cambridge certified faculty having more than 15 years of academic and industrial experience. 

		Focused approach teaching through innovative methods.
"
Petals Krishnanagar                  ,N/A,N/A,Nava Naroda,"Dharnidhar Bunglows,
Krishnanagar, Parshwanth, New Naroda",Delhi, 382346,India,https://www.myprivatetutor.com/userfiles/centers/center146191104815982.png,"Learning Disabilities, Slow Learners","Dharnidhar Bunglows,
Krishnanagar, Parshwanth, New Naroda"
Vr Designs                  ,N/A,N/A,Navrangpura,CEPT University,Delhi, 380001,India,,"Fashion Designing, NIFT","
	VR Designs as an institute operates from Ahmedabad and helping the students in test preparation."
Fortune Educare                  ,N/A,N/A,Ambawadi,"B-5/6, Allwish Apts, B/h Shraddha Motors, Nr Shreyas Overbridge, Ambavadi, Ahmedabad-15",Delhi, 380015,India,,"Biology, Chemistry, Mathematics, Physics","
	Fortune Educare a glorious name in providing education to the students in the field of science subjects and mathematics. Building your confidence by instilling strong subject knowledge is our aim and we do it with elan! We have competent faculties, requisite infrastructure, well thought out programmes to help you out with your studies and we are sure that you will benefit."
Concept Classes                  ,N/A,N/A,Akhbarnagar,"407, Ratna High Street, Nr Naranpura Cross Roads, Naranpura,",Delhi, 380013,India,,"Chemistry, IT & Computer Subjects, Mathematics, Physics","
	We take care of individual students. All necessary guidance are provided by us. Concept Classes are here to bring out your best qualities to the fore and rectify the weak areas. Joining our classes will help you build your dream career and a responsible citizen of India."
Insight Institute Of Professional Studies (iips)                  ,N/A,N/A,Naranpura,"1ST FLOOR, BUNGALOW NO:2, SHREEJI SOCIETY, 
BEHIND GAUTAMNAGAR BUS STAND,
NEAR NARANPURA RAILWAY CROSSING,
AHMEDABAD-380013.",Delhi, 380013,India,https://www.myprivatetutor.com/userfiles/centers/center145962860015753.jpg,"CA - CPT, CA - IPCC, CS - Executive, CS - Foundation, CS Professional","
	As an institute Insight Institute Of Professional Studies (IIPS), we try to understand the requirement of each student. Once the educational needs of each student are identified, then the study pattern is planned according to their needs, within the scope of the syllabus. Learning is always suppose to be interactive and therefore, emphasis is always given on the feedback of the student regarding each topic that has been taught."
Dan School Of Math                  ,N/A,N/A,Ahmedabad University,"B 101 Nirmal Residency 
Behind Kiran Motors Moetra Sabarmati 
Ahmedabad",Delhi, 380005,India,,"Chemistry, Mathematics, Physics, IIT JAM, IIT JEE Advanced, IIT JEE Mains","
	Dan school of Mathematics is institution working in the field of developing mathematical and reasoning skill in kids up to Higher Secondary level. Institution is also working for preparation of aptitude exams conducted by various boards for college admissions like SAT , SAT Subject test, JEE Mains. Major focus at Dan School is to develop a logic based approach to solve problems asked in examinations. Interactive sessions conducted by us make students confident to go through various difficulty levels of exams. We at Dan School tries to make student passionate about the subject so that he learn the things not for the grades only but for knowledge. Approach developed by us got good results and continuous R&D in developing new techniques to deliver the content to student is part of our daily activity which makes the classroom discussions always new as the first class."
Vijeta Academy                  ,N/A,N/A,Vejalpur,"A-309-310, Shreyas Complex, Nr. Bakeri City, Vejalpur Cross Roads",Delhi, 380051,India,,"Business English, Spoken English","
	Vijeta Academy is an English learning and soft skills development training academy located in Vejalpur, Ahmadabad. We also provide job placement and recruitment services. We have highly experienced English and personality development trainer. This academy is well aware about its regularly undertakes various social activities and responsibilities."
Aim Tuition Classes                  ,N/A,N/A,Bopal,F 504 Kabir Enclave Opposite To Homeopathic College,Delhi, 380058,India,,Mathematics,"
	We provide quality education with guaranteed results for the students. Our classes are small and batches are not more than 10 students. This has been specifically designed so that the teachers can give personal attention to every student and cater to their difficulties on an individual basis."
Communique Foundation                  ,N/A,N/A,Ahmedabad University,"402 / B, Primate Building, Opposite Mother's Milk Place, Near Judges Bungalow Police Chowki, Bodakdev",Delhi, 380054,India,,"Business English, Corporate Communication, Effective Communication, IELTS, Public Speaking, Spoken English, TOEFL","
	Language is power and English opens many doors! Communique foundation, Ahmadabad aims to improve skills in English language among people of all ages. Our well designed courses include fun-filled easy methods and resources. We equip children, older students, professionals and home-makers to become fluent in using and speaking English."
Neev Academy                  ,N/A,N/A,Amraiwadi,"3rd Floor, 305 Radhe-krishna Arcade
Opp.Hirabhai Tower
Maninagar
Ahmedabad",Delhi, 380008,India,,"Accountancy, Business Organisation, Commerce Subjects, Economics, Statistics","

		Mock tests 

		Self prepared notes 

		One to one tutoring 
"
