Name,Phone,Website,Area,Address,City,Pincode,India,Image,Category,About
Major Kalshi Classes Pvt. Ltd.                  ,N/A,N/A,Allahabad City,"105/244, Tagore Town
Near Colonelganj Inter College, Allahabad 211001
INDIA",Delhi, 211001,India,,"Defence Exams, NDA, Police Department Exam, SSB Exam, SSC Exams, UGC Exams, UPSC Exam","
	The Major Kalshi Classes Pvt. Ltd is one of the best Defence training coaching in India which provides the rigorous training for defence services aspirant.Its working for SSB interviews training with the proper guidance of best psychologist team of India. The Major Kalshi Classes Pvt. Ltd provides the talented faculties of UPSC syllabus. This academy provides the separate faculties for all parts of G.S (HISTORY, POL SCIENCE, GEOGRAPHY, CURRENT ISSUE, SCIENCE & TECHNOLOGY, and INTERNATIONAL RELATIONS), MATHEMATICS, PHYSICS, CHEMISTRY, and ENGLISH. Major Kalshi Classes Pvt. Ltd provides regular group discussion classes for G.S & INTERVIEW SKILL development. The Major Kalshi Classes Pvt. Ltd provides training especially for DEFENCE & AIR FORCE (NDA, CDS, ACC, AFCAT & CPF). The Major Kalshi Classes Pvt. Ltd provides eloquent study material prepared by talented faculties of UPSC syllabus. Only Major Kalshi Classes Pvt. Ltd provides assignments for aspirants to rigorous practice of UPSC syllabus."
Bestech Solutions                  ,N/A,N/A,Allahabad,"136 A/3/1 Sanjay Tower, Patrika Crossing, Tashkand Marg, Opp Petrol Pump, Civil Lines Allahabad",Delhi, 211001,India,https://www.myprivatetutor.com/userfiles/centers/center147192833516467.jpg,"Android Training, Embedded Systems, Networking, Robotics, Unix/Linux","136 A/3/1 Sanjay Tower, Patrika Crossing, Tashkand Marg, Opp Petrol Pump, Civil Lines Allahabad"
Kaish Classes                  ,N/A,N/A,Agriculture Institute,"B-1/24, Sector-A, Kapoorthala, Aliganj, Near Novelty Cinema, Lucknow",Delhi, 220602,India,https://www.myprivatetutor.com/userfiles/centers/center1467695543.jpg,"Chemistry, Mathematics, Physics","
	KAiSH Classes Offers Coaching classes for 5th to 11th (All Board) by Professionals Engineers & P. hd. holders. Having more than 15 years experience in teaching field."
Community Pharmacist Aid-cpa                  ,N/A,N/A,Allen Ganj,Vile Parle East,Delhi, 400050,India,,Pharmacy,Vile Parle East
Pro Cadd Educational Services                  ,N/A,N/A,Naini,"Daud NAGAR, Above ICICI BANK, Mewa Lal Bagia, Naini, Allahabad, 211008",Delhi, 211008,India,https://www.myprivatetutor.com/userfiles/centers/center1463376213.png,"Civil, Computer, Drawing, Mechanical, Production","
	Pro CADD Educational Services is Centre of Excellence in CAD/CAM/CAE involved in Engineering Design and CAD/CAM/CAE training. We understand that the advancement of engineering and technology is a prerequisite for development. Our wide range of industry required knowledge to share by an experience personnel with our customized delivery strategy responds to every need by offering individual, tailor-made training and not just packaged products. We are facilitating training in soft skills and special training for corporate personnel. For more Call us or mail for more details on the same, we shall respond you immediately. We also provide short time of focused, customized and project-oriented training for organisations on CAD/ Project Management. Pro CADD Educational Services has successfully trained about Industry need professionals in very short time from diverse engineering, graphic and management backgrounds."
Pathshala                  ,N/A,N/A,Rajrooppur,"Near Durga Mandir
RAJROOPPUR 
ALLAHABAD",Delhi, 211011,India,,"Chemistry, Computer Science, Mathematics, Physics","
	Pathshala is coaching classes for UP board girls student. We are the leading institute of Allahabad providing training in all subjects from first standard to 12th standard and in all streams of graduation and post-graduation."
Success Tutorial                  ,N/A,N/A,Rajapur,"542, A/76, Matiyara Road, Allahapur, Allahabad U. P.",Delhi, 211006,India,,All Subjects,"
	Success Tutorial has been setup by academicians who are extremely passionate about education and believe in more than just teaching. We are dedicate to improve the quality of education currently being imparted to student who are about to choose their future careers."
New Star Tutorials                  ,N/A,N/A,Bai-ka-bagh,S.23/62-D-A-27-R DHELWARIYA CHAUKAGHAT VARANASI,Delhi, 221001,India,https://www.myprivatetutor.com/userfiles/centers/center145969630215757.jpg,"Chemistry, Computer Science, Mathematics, Physics","
	New star tutorial is an education blog which gives you useful information and knowledge of subjects like mathematics, physics, chemistry and computer. Other subjective files are also available to download."
Creative Zone Cadd Training Institute                  ,N/A,N/A,Naini,13-e Mewalal Bagiya Uco Bank Building Nain,Delhi, 211008,India,,"Civil, Drawing, Mechanical, C, C++, C# (C Sharp), Java and J2EE, Visual Basic, Advanced Excel, Basic Computer, MS Office, Tally ERP 9","

		Individual Student Guidance with true care. 

		Special Attention to weak students. 

		Detailed chapters coverage. 

		Specialized notes for the subjects. 

		Weekly tests, Monthly practice tests and Exam mock tests. 
"
Dwivedi Classes                  ,N/A,N/A,Jhunsi,"Awas Vikas Colony, Near Amrit Sweets House",Delhi, 211019,India,,"Algebra, All Subjects, Mathematics, Physics, Biology, Chemistry, AIEEE, AIPMT",If you are seeking school or college level coaching then Dwivedi classes will provide you with all the solutions. Our classes are designed with competent subjectr experts and well planned teaching and evaluation methods. We provide attention to each students development and ensure that everybody gets their due from us.
Mahendras Sultanpur                  ,N/A,N/A,Civil Lines,"1st Floor, Usha Commercial Complex, Raj Hotel Compound, Above Bank Of Baroda, Civil Lines, Sultanpur",Delhi, 228001,India,https://www.myprivatetutor.com/userfiles/centers/center1420716499.jpg,"Basic Computer, MS Office, Tally ERP 9, Corporate Communication, Effective Communication, Spoken English, Interview Skills, Presentation Skills, Public Speaking, Soft Skills, GATE Exam, GRE, TOEFL, Telephonic Skills","
	Learning is not attained by chance, it must be sought for with ardor and diligence. Mahendra’s Sultanpur is the learning hub in the city. Education's purpose is to replace an empty mind with an open one. It is a progressive discovery of our own ignorance. A human being doesn't attain his full height until he is educated."
Mahendras Pratapgarh                  ,N/A,N/A,N/A,"Courses:Basic Computer, MS Office, Tally ERP 9, Corporate Communication, Effective Communication, Spoken English, Interview Skills, Presentation Skills, Public Speaking, Soft Skills, GATE Exam, GRE, TOEFL, Telephonic Skills",Delhi, 230001,India,https://www.myprivatetutor.com/userfiles/centers/center1420719892.jpg,N/A,"
	Mahendra’s Pratapgarh works to serve a broad section of the society. This is among the leading institutions in the given field. Society and knowledge cannot be ever separated into two distinct entities. The education we provide is indispensable and cohering. We aim to be one institute who's first priority would always be its students."
Mahendras Basti                  ,N/A,N/A,N/A,"Courses:Basic Computer, MS Office, Tally ERP 9, Corporate Communication, Effective Communication, Spoken English, Interview Skills, Presentation Skills, Public Speaking, Soft Skills, GATE Exam, GRE, TOEFL, Telephonic Skills",Delhi, 272001,India,https://www.myprivatetutor.com/userfiles/centers/center1420716869.jpg,N/A,"
	We are among the best institutes of Basti, UP. Basti being a town with a very good literacy rate makes us run into competition with many institutes, but our proficient learning experience given to the students makes us stand out of the crowd. Updated and detailed study materials with sufficient coaching makes our students reach out for success without much difficulty."
Mahendras Allahabad                  ,N/A,N/A,Civil Lines,"124 C / C Ashirwad Bhawan, Tej Bahadur Sapru Marg Civil Lines, Allahabad",Delhi, 211001,India,https://www.myprivatetutor.com/userfiles/centers/center1420716673.jpg,"Basic Computer, MS Office, Tally ERP 9, Corporate Communication, Effective Communication, Spoken English, Interview Skills, Presentation Skills, Public Speaking, Soft Skills, GATE Exam, GRE, TOEFL, Telephonic Skills","
	Mahendra's happen to be the best coaching hub in and around Allahabad. Proper guidance and detailed study materials are our specialty. We conduct special classes on quantitative aptitude for weak students. Details regarding latest vacancies and results are provided to the students in order to keep them updated. A healthy atmosphere for a great learning experience is what we believe in providing to the students."
Classes Of Ayush Kumar                  ,N/A,N/A,Teliarganj,Swaraj Nagar Near Mnnit,Delhi, 211004,India,,"Zoology, Statistics, Sociology, Social Studies, School level computer, Psychology, Political Science, Physiology, Physics, IIT JEE Mains, Philosophy, Mathematics, Logic, IT & Computer Subjects, History, Hindi, Geography, Food & Nutrition, Fashion Study, EVS, English, Education, Economics, Costing, C... More [+]","
	Classes of Ayush Kumar   is one of the India's  leading academic institution. offering a unique friendly  environment that prepares the next generation to lead and make a difference in this competitive world. We are a family of honest and true students, faculty, alumni and professionals dedicated to serving the eager mind to get success. At present Classes of Ayush Kumar Students become a synonym of success in education and coaching for various school level subject.Throughout the academic session, Classes of Ayush Kumar is maintaining its best quality and standard of teaching, becoming the leader amongst  the other institutions  at present scenario. "
Nuzhat Academy                  ,N/A,N/A,Khuldabad,"Flat No 13, New Market Khuldabad",Delhi, 230001,India,,"Spoken English, Science, Public Speaking, Physics, Mathematics, Language, History, Hindi, Geography, EVS, English, Effective Communication, Corporate Communication, Computer, Chemistry, Biology, All Subjects","
	Nuzhat Academy is one of the India's  leading academic institution. offering a unique friendly  environment that prepares the next generation to lead and make a difference in this competitive world. We are a family of honest and true students, faculty, alumni and professionals dedicated to serving the eager mind to get success. At present Nuzhat Academy Students become a synonym of success in education and coaching for various school level subject.Throughout the academic session, Nuzhat Academy is maintaining its best quality and standard of teaching, becoming the leader amongst  the other institutions  at present scenario. "
Parivartan Coaching Institute                  ,N/A,N/A,George Town,"Parivartan
10/18 E, Lowther Road , George Town",Delhi, 211002,India,,"GRE, GMAT, TOEFL, Stock & Share Trading, Forex Trading, Investment Training, Book Keeping, Customer Service, HR/Personnel, Journalism/Writing, Life Coaching, Marketing:Communication, Marketing:Online/SEO, Presentation Skills, Public Speaking, Sales Training, SAP Training, Healthcare Management, IELT... More [+]","
	Parivartan Coaching Institute  is one of the India's  leading academic institution. offering a unique friendly  environment that prepares the next generation to lead and make a difference in this competitive world. We are a family of honest and true students, faculty, alumni and professionals dedicated to serving the eager mind to get success. At present Parivartan Coaching Institute has become a synonym of success in education and coaching for IBPS, Bank PO etc.Throughout the academic session, Tara Institute is maintaining its best quality and standard of teaching, becoming the leader amongst  the other institutions  at present scenario."
Lovely Education Centre                  ,N/A,N/A,Shantipuram,"223, C.b.gupta Colony, Shamli",Delhi, 247776,India,,"Mathematics, Physics, English, History, Geography, Accountancy, Botany, Business Maths, Chemistry, Computer Science, Costing, Economics, Education, Hindi, Physiology, Political Science, Psychology, Sociology, Zoology, Biology, Statistics, UPSC Exam, SSC Exams, Defence Exams, Insurance Exams, Bank Cl... More [+]","
	Foundation caters coaching of a wide ranges of regular courses. We have the right ambience of learning and our very learned faculties makes you develop an interest to your studies and this way you will experience enhanced learning abilities and results. Come and join us and feel the difference!A low student to faculty ratio combined with many years of teaching experience results in a truly supportive learning environment. We are renowned for our professional faculty and the quality of teaching. The institute is substantial enough to have good facilities and at the same time we ensure that our students are treated as individuals."
Rai Tutorials                  ,N/A,N/A,Ashoke Nagar,"Ut-204, Ashok Vihar, Ashok Nagar",Delhi, 473335,India,,"English, Accountancy, Botany, Business Maths, Chemistry, Costing, Economics, Education, Geography, Hindi, History, Mathematics, Physics, Physiology, Political Science, Psychology, Sociology, Zoology, Biology, Statistics, IIT JEE Mains, UPSC Exam, SSC Exams, Defence Exams, Insurance Exams, Bank Cleri... More [+]","
	Rai Tutorials  is an institute for school students where they will get good facility and calm studying atmosphere with a very high level of teaching. We will identify the strength and weakness of each student individually for their studies. Our method of teaching is similar to home tuition where every student get individual attention .We welcome all the parents and students who are looking for good tutoring"
Commerce Guru                  ,N/A,N/A,Bahmalpur,Allahabad,Delhi,,India,,"English, Hindi, Language, Mathematics, EVS, History, Geography, Science, Computer, Physics, Chemistry, Biology, All Subjects, Economics, Zoology, Accountancy, Commerce Subjects, Botany, Business Maths, Costing, Education, Physiology, Political Science, Psychology, Sociology, Statistics, Food & Nutri... More [+]","abhay agrawal
manish pandey
imran khan"
