Name,Phone,Website,Area,Address,City,Pincode,India,Image,Category,About
Gradvalley                  ,N/A,N/A,Nehru Nagar West,"177/1A Annamalai Industrial Park
Sitra Kalapatti Toad
Kalapatti,",Delhi, 641048,India,https://www.myprivatetutor.com/userfiles/centers/center1461565782.png,"ACCA, CA - CPT, CA - Final, CA - IPCC, CFA, CFP, CIMA Certification, CMA Final, CMA Foundation, CMA Intermediate, CMA-CPA-ACCA-CIMA, CPFA, CS - Executive, CS - Foundation, CS Professional, Direct Tax Laws, ICWA & ICWAI, Accountancy, B.Com Tuition, Banking & Finance, Business Maths, Costing, Direct T... More [+]","

		Experiential and networked learning. 

		Committing to a set of core soft skills. 

		Offering high quality, relevant programs and pathways. 

		Committing to teaching excellence. 

		Advancing partnerships, applied research and outreach opportunities. 

		Clearly defined and efficient pathways. 

		Coordinated and connected approach across full-time and part-time programs. 

		External accreditation ensures our programs relevancy to employers, globally. 

		Placement and Alumini coordination.
"
Accounting Tuition Centre                  ,N/A,N/A,Ramanathapuram,"1B, Olive Block, Mayflower Apartments, Najundapuram Road, Ramanathapuram.",Delhi, 641045,India,,Accountancy,"
	The group of highly experienced faculty members in our institute give the students a kind of coaching that shall last its effect on their minds for a very long haul. Study materials we provide are of very high quality and always upgraded as per the recent requirement of the University, as well as the industry. During the classes every kind of assistance regarding the course is provided by our institution."
Leap                  ,N/A,N/A,Saravanampatti,"Saro Complex, 86, Thudiyalur Road, Saravanampatti, Coimbatore, 641035",Delhi, 641035,India,,"Chemistry, Physics","Saro Complex, 86, Thudiyalur Road, Saravanampatti, Coimbatore, 641035"
Impresso3d                  ,N/A,N/A,Coimbatore Aerodrome,"MIG 190, Brundhavan Nagar 3rd Street, Near Airport,
SITRA,
Coimbatore",Delhi, 641014,India,https://www.myprivatetutor.com/userfiles/centers/center146659680816362.png,3D Printing,"MIG 190, Brundhavan Nagar 3rd Street, Near Airport,
SITRA,
Coimbatore"
Centum Intitute                  ,N/A,N/A,Peelamedu,"Kalimedu Street, Peelamadu, Coimbatore, 642113",Delhi, 642113,India,https://www.myprivatetutor.com/userfiles/centers/center146840993116306.jpg,"Accountancy, Arts Group, Business Maths, Commerce Subjects, Economics","
	Centum intitute is a reputed tutorial/coaching based in the city of Coimbatore for school and college level subjects. We offer excellent training facilities with competent faculties to help you gain a strong foundation in the subject and prepare to perform well in the examinations."
Abinaya Institution                  ,N/A,N/A,Kovai Pudur,"34, Abinaya Shameem Garden, Sundakamuthur, Kovai Pudur, Coimbatore, 641010",Delhi, 641010,India,,"Accountancy, Business Organisation, Business Studies, Commerce Subjects","
	Abinaya Institution as an institute for accountancy and commerce classes for 11th and 12th std. We prepare the students for board exam for higher achievement."
Lingua World                  ,N/A,N/A,Ram Nagar,"114A, Kalishwara Nagar, Mariappa Konar St, Coimbatore, Tamil Nadu, 641009",Delhi, 641009,India,https://www.myprivatetutor.com/userfiles/centers/center1464418500.png,"IELTS, Spoken English, TOEFL, Chinese, Danish, English, French, German, Hindi, Italian, Japanese, Latin, Portuguese, Russian, Spanish, Swedish","
	Lingua World is one of the best institutes established in 1995, Coimbatore offering courses in foreign languages like German, French, Portuguese, Spanish, English Russian, Italian, Japanese, Swedish, Chinese, Danish, Dutch and Norwegian. A unique method called language immersion method is followed in teaching the languages. The language lab facilities and the Audio-Video packages make learning of any language natural and easy. The learning content in the study programme is designed to make learners who do not know anything about the language become fluent speakers. The lessons cover all aspects of living, working, socializing and travelling . Incorporating current research in language learning, our method of teaching will enable you to rapidly gain the ability to read, write and converse in the language of study. ."
Wisdom Foundation                  ,N/A,N/A,Tirupur,"165, Emkay Complex, First Floor. Kangeyam Road, Near Dsk Hospitals, Opp To Palamudhir Nilayam, Tirupur, 641604",Delhi, 641604,India,,"Civil, Computer, Electronics, Mathematics, Mechanical","
	Wisdom Foundation is a Coimbatore based reputed training center. We provide tuitions all board students, also providing classes for other competitive examinations."
Chocolate Buds Play School                  ,N/A,N/A,Rathinapuri,"82 Pm Samy 1st Cross
Rathinapuri
Coimbatore",Delhi, 641027,India,https://www.myprivatetutor.com/userfiles/centers/center1462774652.jpg,"Abacus Training, Communicative English, Handwriting, Language, Mental Maths","
	Welcome to Chocolate Buds Play School, a strong foundation education is that given to a child. Primary Education itself is segregated into:- "
Immo S Global Administrative Consultation Services                  ,N/A,N/A,Peelamedu,"50/22(Under Renovation), Elgi Nagar, Meena Estates, Sowripalayam Road,",Delhi, 641028,India,https://www.myprivatetutor.com/userfiles/centers/center145949713814966.jpg,"Corporate Communication, Public Speaking, Corel Draw, Multimedia, Advanced Excel, Basic Computer, Computer for official job, MS Office, Customer Service, HR/Personnel, Leadership Skills, Sales Training","

		Authentic course material 

		Experienced faculties 

		Interview guidance classes 

		Grooming program 

		Surprise tests 

		Ethical practice 
"
Snak Tuition Center                  ,N/A,N/A,Perur,"Tatabad ,  Coimbaotre   And Pachapalayam, Perur.",Delhi, 641010,India,,"All Subjects, Computer Science, Mathematics, Business Maths, Home Science, IT & Computer Subjects, BCA Tuition, IT, BCA, M.Sc Tuition, MBA, MCA","
	SNAK Tuition Center provides tuition for standard X & XII science and mathematics subjects taken. Also handles computer science and mathematics classes for college students"
Felix Career Academics                  ,N/A,N/A,Ramanathapuram,"No 166/62, Arumugam Nagar, Ramanathapuram,  Near Royal Enfield Apartment",Delhi, 641045,India,https://www.myprivatetutor.com/userfiles/centers/center1451898646.png,Mathematics,"
	Felix Academy is a reputed tutorial/coaching based in the city of Coimbatore for school level segment/subjects and specializing in competitive examinations and related based topics. We provide complete preparation for 2016 exams. We cover all the relevant topics and hold classes per/week. We hold special classes for weaker student and also Daily/weekly classes for practice purpose. Our center also conducts Crash course/Demo for students of all standards and competitive exams/test papers for the same."
Rg\'s Academy                  ,N/A,N/A,Edayarpalayam,"Rg's Academy, 11/3, Gowtham Complex, Tadagam Road, Edayarpalayam",Delhi, 641030,India,,"Basic Computer, Communicative English, Spoken English, Arts & Crafts, Drawing & Painting","
	RG's Academy  is not just an institute built with bricks and mortar. It is an institution founded on the pillars of Faith and Hope. Over the long time, RG's Academy  has grown from being an ambitious endeavour to a leading academic institution committed to promoting excellence in the field of education and teaching"
Happy Learning Academy                  ,N/A,N/A,Gandhi Puram,"No.266M, BR Puram, Hopes",Delhi, 641004,India,https://www.myprivatetutor.com/userfiles/centers/center1450162658.jpg,"Effective Communication, English, Customer Service, Leadership Skills, Business Etiquette, Interview Skills, Personality Development, Soft Skills","Very Reasonable Fee. For the students who enroll for English course, we avail personality development course for free.
More of speaking. More Practical !"
Lotus Educational Services                  ,N/A,N/A,Gandhi Puram,"Jubliee Complex, Near Siddapudur Ayyapan Kovil , New Siddapudur, Gandhipuram",Delhi, 641044,India,https://www.myprivatetutor.com/userfiles/centers/center145335891214208.png,"Accountancy, All Subjects, Biology, Economics, English, Hindi, Mathematics, NSTSE, NTSE, Olympiad Exam Preparation, School level computer, Social Studies, Geography, History, French, Tamil","

		Experienced Faculties

		Flexible Timing

		Interactive Sessions
"
Texila American University                  ,N/A,N/A,Kuppakonam Pudur,"Texila American University - Admission Office, C/o- SAKSHI Education Consulting & Training (P) Limited, #34/1, K.S.Arunachalam Road, K.K.Pudur, Coimbatore-641038. Tamil Nadu, India.",Delhi, 641038,India,https://www.myprivatetutor.com/userfiles/centers/center1446801595.jpg,"Biology, Chemistry, Mathematics, Physics, BBA Entrance, BBA Subjects, Management Subjects, B.Ed, BBA, MBA, MCA, NCLEX, Study in China, Study in USA, USMLE","
	On Campus Programs: 1. MBBS 2. Nursing Online and Work-blended Programs 1. School of Clinical Research (Masters and Doctoral) 2. School of Behavioral Science (Masters and Doctoral) 3. School of Public Health (Masters and Doctoral) 4. School of Nursing (Masters and Doctoral) 5. School of Information technology (Masters and Doctoral) 6. School of Management programs (Masters and Doctoral) 7. School Of Education (Masters & Doctoral) 8. School of Alternative Medicine (Doctoral) 9. School of Research"
Patashala Coaching Centre                  ,N/A,N/A,Pollachi,No 9 Vivekananda Street P N Pudur,Delhi, 641041,India,,"All Subjects, Mathematics, Art & Craft Designing","
	Patashala makes learning an easy and enjoyable activity for all the students. Our programmes are designed to build a strong foundation in all the subjects and prepare them to face the examinations without fear. Our trained teachers provide attention to each student so that they may rectify their problem areas and strengthen themselves."
Ara Education                  ,N/A,N/A,Gandhi Puram,"3rd Floor, Durga Complex,  6th Street,Cross Cut Road,Gandhipuram,",Delhi, 641012,India,https://www.myprivatetutor.com/userfiles/centers/center1446707539.png,"ACCA, CA - CPT, CA - Final, CA - IPCC, CMA Final, CMA Foundation, CMA Intermediate, CMA-CPA-ACCA-CIMA, CS - Executive, CS - Foundation, CS Professional, Bank Clerical, Bank PO, IBPS, RBI Exam, Law Entrance, BBA Entrance, BBA Subjects, Management Subjects, MBA Entrance, AIPMT, Medical Entrance Exams,... More [+]","
	Professionalism is something we all aspire to in our careers. Being a professional gets you noticed, it earns you respect and can help you to climb the career ladder. ARA is created with the objective of offering the new age career aspirants highly prestigious and globally demanded career options in professionalism by providing internationally recognized bench-marked professional courses. ARA is the place where virtual teachings and online education enlighten you and build your knowledge deep inside your mind saving your time, money and energy."
The Leisure Online College                  ,N/A,N/A,Karumathampati,"The Leisure Online College, 
Kandaswarna Mega Mall, A Block - 2nd Floor, 
Saradha College Road, 
Salem -636 016, Tamilnadu.",Delhi, 636016,India,https://www.myprivatetutor.com/userfiles/centers/center1446707129.png,"C, C++, Java and J2EE, Spoken English, Corporate Communication, Effective Communication","
	The Leisure Online College is the worlds best platform to learn anything online from anywhere. At the leisure online college, we partner with worlds top quality instructors to create top quality courses covering almost all the topics ranging from computer programming to health. We help you to discover best courses to align with everyones learning needs. Vision: The Leisure Online College is committed to becoming the destination of choice for those seeking a first-class online learning experience through innovation and modern technology at an affordable price to shape the future of millions of people and help them create an opportunity for themselves and for others. Mission: To let you grow in the fields of your dreams by providing you online professional education in an interesting, fun and efficient way. we bring learning to you at, your time, your pace, your location, your device, your budget."
Sms Academy                  ,N/A,N/A,Sai Baba Colony,"Avinashi Lingham College Near,sai Baba Colony.coumbatore",Delhi, 641659,India,https://www.myprivatetutor.com/userfiles/centers/center1444652424.jpg,"All Subjects, Hindi, Mathematics, Physics, Biology, Chemistry, Education, English, B.Ed Tuition, Bank PO, CA - CPT, CA - Final, Spoken English","
	SMS Academy is a reputed tutorial for school and college level tutoring based in the city of Coimbatore. Various subjects are taught by domain experts through well structured classroom programmes. "
Krish Academy                  ,N/A,N/A,Gandhi Puram,"No.133, 1st Floor, Kattoor Road,   641037.",Delhi, 641037,India,,"CA - CPT, CA - Final, CA - IPCC, CMA-CPA-ACCA-CIMA, CMAT, CS - Executive, CS - Foundation","
	A wide range of competitive exam preparation is conducted with great results at Krish Academy. at the city of Coimbatore we are working in this field for quite some time now. Our success is the result of our honest endeavour marked with unchanging quality."
Gnosis Academy                  ,N/A,N/A,Thudiyalur,Thudiyalur,Delhi, 641034,India,,"English, Mathematics, Social Studies, Mental Maths, Biology, Chemistry, Physics, CSAT, IAS Preparation, Railways Exams, Effective Communication, Spoken English","
	Gnosis Academy is a reputed coaching and training center in the city of Coimbator working tirelessly to bring quality education through honest endeavour and well planned approach. Join us soon and enrich yourself !"
Nandanam Tuition                  ,N/A,N/A,Tvs Nagar,"Nandanam Tuition Centre, No 20,sri Ram Illam,abbas Garden,edayarpalayam,coimbatore-641025",Delhi, 641025,India,,"Polytechnic, Auto CAD, Civil, Drawing, Mechanical","A renowned coaching centre Nandanam has complete tutorial programmes in te segments of B.E, Diploma in Civil Engineering, M.E Structural Engineering, First year Engineering Subjects, Engineering, Graphics, Engineering Mechanics etc. We are here to meet all your educational needs and it is assured that you that you will come out of our classes much stronger. "
Ibt                  ,N/A,N/A,Sai Baba Colony,No 34 Bharathi Park Cross Road 8,Delhi, 641011,India,https://www.myprivatetutor.com/userfiles/centers/center1431605881.jpg,"Body Language, Interview Skills, Personality Development, Soft Skills, MATLAB Training, VLSI Designing Training, MBA Entrance, Bank Clerical, Bank PO, Insurance Exams, Railways Exams, RBI Exam, SBI Exam, School Service Commission, SSC Exams","
	Greetings from IBT Coimbatore!! It is our privilege to introduce ourselves as one of the top Bank exam, Insurance exam, Railway and SSC exam coaching institute in India offering quality education and training to the student community for a long time. We have a team of devoted and competent professionals as administrators and faculty members who work with zeal in training and helping students to achieve their goals. IBT have around fifty centres pan India. Broad outline of our courses: SBI PO, IBPS PO, SBI Clerk, IBPS Clerk, IBPS RRB PO, IBPS RRB Clerk, SSC CGL, SSC HSC, Railways exams, Insurance exams AAO, ADO and Assistants, campus recruitment training and other competitive exams."
Dakshaa Global Solutions                  ,N/A,N/A,Neelikonampalayam,"F 4, Sai Dwaraga Apartment",Delhi, 641034,India,https://www.myprivatetutor.com/userfiles/centers/center1452242261.png,"All Subjects, English, Mathematics, Chemistry, Computer Science, Chemical, Computer",Individual tutors for each and every student. Flexible timings. More practical and real time examples to make students understand better
Sms Academy                  ,N/A,N/A,Gandhipuram,"Peelamedu, Gandhipuram",Delhi, 641659,India,,"All Subjects, Biology, Physics, Social Studies, Algebra, English, B.Com Tuition, BA Tuition, Botany, Indian Classical Music","SMS Academy is a reputed coaching center dealing in classrooom based coaching and home tuition located in the city of Coimbatore. We provide school level, College level and music tutoring effectively in the segments of All Subjects, Biology, Physics, Social Studies, Algebra, English, B.Com Coaching, BA Coaching, Botany and Indian Classical Music."
Platinum Health And Educational Trust                  ,N/A,N/A,Gandhipuram,Gandhipuram,Delhi, 641012,India,,"MBA, Study in China, Study in Europe, Study in New Zealand",Platinum Health And Educational Trust provides free counselling to students who have successfully finished plus 2 years. It is an aspiring doctors institution for career consulting and career counselling. Join us and enhance your future prospects !
K V A Skills Academy                  ,N/A,N/A,Ramanathapuram,Ramanathapuram,Delhi, 641045,India,,"Abacus Training, Communicative English, Effective Communication",KVA Skills Academy is having presence in Abacus education since a long time in the city of Coimbatore. There is 2000 trained students to our credit. Our brand of training programme is reflected through our successfull students who are placed all over the country.
