Name,Phone,Website,Area,Address,City,Pincode,India,Image,Category,About
Hand In Hand                  ,N/A,N/A,Indirapuram,"Mahavid Villa, 404, Nitikhand-2 Indirapuram, Near Swarn Jayanti Park",Delhi, 201010,India,,N/A,Comprehensive learning programme for your best benefits.
Mickey Einstein Activity Center                  ,N/A,N/A,Indirapuram,"#02222 ATS Advantage, Indirapuram Shipra Mall, Presidium School",Delhi, 201014,India,,N/A,"
	Copy from website"
Serra International Pre School                  ,N/A,N/A,Raj Nagar,R-5/10 Raj Nagar Ghaziabad,Delhi, 201002,India,https://www.myprivatetutor.com/userfiles/centers/center1461749664.jpg,Summer Camps,"
	Serra International Pre School is an educational institute for children promoting the early childhood education system of the country. We follow a unique method of pedagogy and cater to the growing segment of quality conscious parents, who desire a holistic experience in the formative years of their child's life. We follow inquiry based learning and teaching method which is globally accepted."
Art Workx                  ,N/A,N/A,Raj Nagar,"1-A, Raj Kunj, Raj Nagar",Delhi, 201002,India,,"Robotics, Summer Camps","
	Art Workx is a well established education organization based in Ghaziabad. We offer comprehensive training a wide range of courses. Our classes are specially designed for kids keeping in mind their learning priorities. We conduct sessions in small batches so that more focus can be placed on individual student and their requirements."
Olympia Academy                  ,N/A,N/A,Dadri,"N.t.p.c, Dadri, Ghaziabad, 201008",Delhi, 201008,India,,"Mathematics, Physics",N/A
Srish Tuition Center                  ,N/A,N/A,Vasundhara,"Hno.667, Friends Society, Sector-12, Vasundhra, Ghaziabad, 201012",Delhi, 201012,India,https://www.myprivatetutor.com/userfiles/centers/center147041423316357.png,"All Subjects, English, EVS, Geography, History, Mathematics, Science, Chemistry, Computer Science, Physics, Biology","
	Srish Tuition Center was established with the sole and sacred objective of imparting quality education to the students."
"Wave Coaching, Indirapuram                  ",N/A,N/A,Indirapuram,"7041 ATS ADVANTAGE AHINSA KHAND
INDIRAPURAM",Delhi, 201014,India,,"Biology, Chemistry, Mathematics, Physics, AIEEE, AMIE, CET, GATE Exam, IIT JEE Mains, AIPMT, Medical Entrance Exams","
	Wave Coaching, Indirapuram provides real-time teaching environment that has all the elements of Classroom Coaching. Student can ask Doubts in the Classroom as well as separately out of class. A course designed for the students keeping in mind the new competition levels & pattern of the examinations."
Brainiac Coaching Classes                  ,N/A,N/A,Crossing Republik,"3027,tower 2, Gh7, Crossing Republik, Ghaziabad - 201016",Delhi, 201016,India,https://www.myprivatetutor.com/userfiles/centers/center146562037716238.jpeg,"Mathematics, Physics","3027,tower 2, Gh7, Crossing Republik, Ghaziabad - 201016"
Indo Academy                  ,N/A,N/A,Shastri Nagar,"A Block, House No.-7, Hapur Road, Shastri Nagar, Ghaziabad, 201002",Delhi, 201001,India,,"Business English, IELTS, Public Speaking, Spoken English, TOEFL","
	Indo Academy helps the students to develop their English and helps them to do better in their professional world."
Ns Coaching Center                  ,N/A,N/A,All Areas,"B-7 New Punchwati
Ghaziabad",Delhi, 201001,India,,"Bio Technology, Biology, Chemistry, Mathematics, Physics","
	NS Coaching Center we try to provide better education with the clear knowledge. Help student score better and in deciding field of interest. And besides this, also prepare him for competitive examination. So that the student will always ready to face future challenges."
Gurukul Academy                  ,N/A,N/A,Shalimar Garden,"Kothi No. B-134, Shalimar Garden, Ext. II, Near SM World Mall",Delhi, 201005,India,,"Accountancy, Business Maths, Business Studies, Economics, Mathematics","
	Gurukul Academy is a privately run academy of premier rank. Our faculty is experienced, dedicated and result-driven. We are the institute for school students where they will get good facility and calm studying atmosphere with a very high level of teaching. We will identify the strength and weakness of each student individually for their studies."
Smart Shrubs                  ,N/A,N/A,Indirapuram,"A 324 A, Rajhans Complex, 3rd Floor, Ahinsa Khand I, Indirapuram, Ghaziabad",Delhi, 201014,India,https://www.myprivatetutor.com/userfiles/centers/center1460983095.jpg,Personality Development,"
	Smart Shrubs works with the objective to provide students with the opportunity and a platform to develop holistically. Unlike to the other educational institutes we provide extra edge that shall take your child miles ahead of his or her peers. Our expert faculties offer the best training which help the students to reach to any conclusion all by themselves."
Universal Brain                  ,N/A,N/A,Indirapuram,"Shop No. F F - 25, Central Market, Shipra Suncity Indirapuram, Ghaziabad",Delhi, 201014,India,,"Mental Maths, Personality Development","
	Universal Brain works with the mission to draw out children hidden brain power which is very helpful for children learning. Through our comprehensive training programs we empower students with the tools that will increase their memory and the key that will open their creativity. Our aim is to work in an innovative manner for the enhancement and betterment of education."
Wild Kungfu Association                  ,N/A,N/A,Vaishali,"S-3, Plot No. 2/1, Sector 9, Ghaziabad",Delhi, 201010,India,,"Gymnastics, Karate, Martial Arts","
	Wild Kungfu Association has been offering specialized training packages in Martial Arts classes, Gymnastics coaching and Karate. Apart from our normal coaching sessions, we also focus on the fitness of our students and so we conduct several fitness training sessions along with the normal classes. We have a highly qualified team of coaches with a solid professional background."
Guru Chess Academy                  ,N/A,N/A,Indirapuram,"Sunrise Academy School, Shipra Sun City, Indirapuram Near Central Market, Delhi",Delhi, 201014,India,,Chess,"
	Guru Chess Academy is a professional Chess training academy and serves and an ideal place for young players to learn the secrets of the mind game. Chess is a game which involves children in mental exercise and increases their concentration, analysis, calculation, assessment and more importantly imagination power. Our dedicated and experienced team of trainers have designed different chess courses for the different age group and level of players to improve their chess accordingly and make them top class players of the country."
Nis Cricket Academy                  ,N/A,N/A,Vaishali,"Chhaya Public School, Sector 3, Vaishali, Ghaziabad",Delhi, 201010,India,,Cricket,"
	NIS Cricket Academy based in Vaisali, Ghaziabad and offers quality Cricket training service. We not only be concentrating only on Cricket but also help our students mentally as well on to how to adapt to a particular situation in the game and in what direction do you have to think and take the decision. Our academy id equipped with all the necessary facilities to help youths achieve their desired goal."
Adpla Career Point                  ,N/A,N/A,Mohan Nagar,"A-3, Lajpat Nagar, Sahibabad
Swroop Park Road",Delhi, 201007,India,,"BBA, MCA, MBA, BCA","
	Adpla Career Point is a highly reputed coaching and training center located in the city of Ghaziabad, specializing in all competitive examinations and co related segment and subjects."
Balaji Cricket Academy                  ,N/A,N/A,Vasundhara,"Vidya Bal Bhawan Public School Sector 11, Vasundhara, Ghaziabad",Delhi, 201012,India,,Cricket,"
	Balaji Cricket Academy was started with the cause of helping aspiring young cricketer in fulfilling their dreams. We offer the most effective training and practice sessions keeping in mind the unique requirements of the students. We always motivate our students, so that they will consider themselves a special personality."
Platform Of Dreams                  ,N/A,N/A,Vaishali,"313, Sector 3 A Pnb Road, Vaishali, Ghaziabad",Delhi, 201010,India,,"Creative dance, Folk Dance, Bollywood, Salsa, Western Dance, Arts & Crafts, Drawing & Painting","
	Platform of Dreams is a well reputed training institute imparting training in Art & Craft classes, Physical Fitness classes, Musical Instrument classes, Singing classes, Indian Dance classes, Western Dance classes, Computers, Theatre classes, drawing & painting, pottery, accessory making and many more. We try to create a learning environments where students are active participants as individuals and as members of collaborative groups."
Octave                  ,N/A,N/A,Kaushambi,"B-4, Paramount Arcade, Jaipuria Market, Kaushambi, Ghaziabad",Delhi, 201010,India,,"Folk Dance, Bollywood, Odissi, Salsa, Western Dance, Indian Classical Music, Instrumental, Sitar","
	Octave Dance and Music Training institute offers training program in a wide range of Dance and Music courses. We employ a broad range of instructional techniques to retain student interest and maximize individual learning within a group environment. At our institute, the students get a stimulating learning environment in which students can develop to their full potential. We implement training strategies that are interesting, engaging and fun."
Afad                  ,N/A,N/A,Indirapuram,"C-1, Ground Floor, Suraksha Apartment Abhaykhand-3, Indirapuram, Ghaziabad",Delhi, 201010,India,,"Arts & Crafts, Drawing & Painting","
	AFAD is an institute of Fine Arts based in Indirapuram, Ghaziabad. It was established and started with the prime purpose of imparting professional level training to students aiming to pursue design and Fine Arts related courses. We provide courses in the Fine arts for all ages and abilities. We are supported by a team of experienced faculties accompanied by studios and technical facilities for painting and Graphic Design department. We at AFAD, seek to provide extensive range of training in the least amount of time, with the use of the most modern techniques and facilities. We work with students individually and help them to achieve their personal and professional goals, creatively, technically and commercially."
Fine Strock Institutes Of Creative Arts                  ,N/A,N/A,Vasundhara,"Sector 3, Vasundhara Ghaziabad",Delhi, 201012,India,,"Basic Computer, 2D Animation, 3D Animation, Arts & Crafts","
	Fine Strock Institutes Of Creative Arts offer courses in Art & Craft classes, Computers, Animation and many more for students of all age groups. We always strive to provide a stimulating learning environment in which students can develop to their full potential. Our training philosophy is to carefully guide a student toward a finding solution."
Image Boosterz                  ,N/A,N/A,Govindpuram,"D-423, 1st Floor, Govindpuram, Ghaziabad",Delhi, 201002,India,,"Basic Computer, IELTS, TOEFL, C, C++, Java and J2EE, MBA Entrance","
	Image Boosterz was established with the sole purpose of grooming the personalities of Graduates and Post Graduates, which are acceptable and admired in the Corporate. Our modules are so designed that they can run along the course schedule of graduates and postgraduates. We have particularly designed various modules for students, which help them in Corporate. We also conduct various workshops in various Prestigious Colleges in several States. These workshops are extremely liked by the students as the results are very effective and evident."
Brains Booster                  ,N/A,N/A,All Areas,"Ugb - 4, Ramprastha Colony Near City Centre Market, Ghaziabad",Delhi, 201011,India,,Basic Computer,"
	Brains Booster is a well reputed institute offering Basic computer and Computer programming course for students of all age groups. We always try to make our classes interactive and engaging for our students. We are extremely patient, and always attend to the specific needs of the students. Part of teaching approach is to discover how a student learns best, and then to present the material in that way."
Race Computer Academy                  ,N/A,N/A,Nehru Nagar,"3rd M, 20 & 21, Nehru Nagar, Ghaziabad",Delhi, 201002,India,,Basic Computer,"
	Race Computer Academy specializes in offering Computer training classes for students of all age groups. We place more emphasis on practical classes as we believe that in order to learn Computer science effectively one should be thorough with the practical concepts. We provide an environment where students can experience an ideal learning atmosphere where students can attain their maximum potential."
Naad Music Academy                  ,N/A,N/A,Kaushambi,"Basement Of Govardhan Tower, Near Kaushambi Metro Station, Kaushambi, Ghaziabad",Delhi, 201010,India,,"Guitar, Instrumental, Tabla, Arts & Crafts","
	Naad Music Academy offers a wide range of courses in various Dance forms such as Vocal, Kathak, Bharatnatyam, Hip Hop, Jazz, Salsa, Contemporary, Bollywood. Along with this we also offer training classes in Art and craft as well as various Music courses. We offer the opportunity to all our talented and well trained students in order to show their ability to perform on a bigger platform where people can watch them and appreciate their talent."
Inspire Worldwide Education                  ,N/A,N/A,Crossing Republik,"#301, 3rd Floor, Panchsheel Square Mall. Crossings Republik, Ghaziabad",Delhi, 201301,India,https://www.myprivatetutor.com/userfiles/centers/center145948555815743.png,"GMAT, GRE, IELTS, PTE, SAT, TOEFL","#301, 3rd Floor, Panchsheel Square Mall. Crossings Republik, Ghaziabad"
Neha Arts Classes                  ,N/A,N/A,Vaishali,"Plot No. 146, Sector 1, Near Modern School",Delhi, 201012,India,,Arts & Crafts,Regular evaluation of each students progress and feedback to Guardian.
