Name,Phone,Website,Area,Address,City,Pincode,India,Image,Category,About
Mind Tree Academy                  ,N/A,N/A,Arjun Nagar,"J-47 , Ganesh Path, Tagore Nagar,ajmer Road,",Delhi, 302024,India,https://www.myprivatetutor.com/userfiles/centers/center1453971632.jpg,"Abacus Training, All Subjects, Mathematics, Mental Maths, Biology, Chemistry, Physics, SSC Exams","
	- Special attention to weak students. 

	- Laboratory facility for better understanding in science. 

	- Before final exams we take major and mock tests."
Ruhi Ma'am Maths Classes                  ,N/A,N/A,Shyam Nagar,"F-209 Mithla Path
Shyam Nagar Ext.
Sodala Jaipur",Delhi, 302019,India,,"Mathematics, AIEEE, BITSAT, CET, IIT JEE Advanced, IIT JEE Mains","F-209 Mithla Path
Shyam Nagar Ext.
Sodala Jaipur"
Leo Tutorial                  ,N/A,N/A,Tilak Marg,R-2 Tilak Marg     C Scheme.,Delhi, 302001,India,https://www.myprivatetutor.com/userfiles/centers/center1452578674.png,"Biology, Botany, Chemistry, Mathematics, Physics","Leo Tutorial provides coaching based tutorial in the city of Jaipur in KG to Plus two level. We also specialize in the domains of BBA, B.Com, French, English Speaking, Craft, Drawing, Dance, Yoga, Aerobics etc. Leo Tutorial is your friend in need and you are going to enjoy the experience !"
Papple Pies                  ,N/A,N/A,Ashok Nagar,"165 Gayatri Nagar First, Durgapura, Jaipur",Delhi, 302018,India,,Summer Camps,"
	Pappli Pies has developed various after school activities specially designed for young children. We always strive towards creating and providing a safe and healthy day care space for children apart from a quality learning structure in the after school care program. We offer fun filled, safe environment with indoor and outdoor activities, where he or she can continue to explore, learn and build close friendships."
Innovation Station                  ,N/A,N/A,Malviya Nagar,"Building 33-36, Lal Bahadur Nagar (West), Avenue 1, S L Marg, Malviya Nagar, Jaipur",Delhi, 110017,India,,Summer Camps,"
	Innovation Station is a well reputed educational institute where geniuses are created. Our aim is to inspire children to become future science and technology leaders, by engaging them in various stimulating hands-on programs that build Science, Technology, Engineering, Mathematics skills, inspire innovation, and instill well-rounded life capabilities including self-confidence, communication, and leadership."
Schoolpage Tutorials                  ,N/A,N/A,22 Godam,Jaipur 302017,Delhi, 302017,India,https://www.myprivatetutor.com/userfiles/centers/center1407740177.jpg,"Chemistry, English, Mathematics, Physics, IELTS, Spoken English, TOEFL, French, German, Hindi, Spanish","
	School Page is the outcome of a long quest to combine the latest in pedagogy, through its unique e-Tutoring (STS) methodology, with the best in technology, which makes it available to students from all over the world.While there are large numbers of great teachers available throughout the world, great teaching and great tutoring are very different in many ways and require very different approaches. There are also many differences between classroom teaching and off-school tutoring methodologies. With this in mind, the SchoolPage team worked with other global academics to create the unique SchoolPage e-Tutoring System (the STS), which is based on Richard E. Mayer’s ‘Cognitive Theory of Multimedia Learning’. The STS is a highly structured academic system. Through the use of a 9-stage lesson organizational structure, STS is used in every SchoolPage session ensuring better engagement, superior retention and rapid results. STS includes the use of cognitive tools such as Mind Mapping, self-diagnosis tools such as Comfort Boxes, and Learning Outcomes that are highly student centric."
Institute Of Financial Studies                  ,N/A,N/A,Akhepura,"C 19 Lotus Villah, Pankaj Singvi Mark, Lalkothi, Jaipur, Rajasthan 302005",Delhi, 302005,India,https://www.myprivatetutor.com/userfiles/centers/center1472211695.jpg,"CFA, Actuarial Science, Banking & Finance, Business Maths, Financial Management, Statistics, MBA Entrance, MHA, MTTM","
	The formal higher education system has some inherent short comings like it does not keep pace with rapidly changing economics, financial domain and market dynamics making it a bit outdated and insignificant, therefore there is precise need for meaningful interface with new developments on regular and sustainable basis. To meet this perceive gap, Institute of Financial Studies, Jaipur has been established in year 2009. Institute of financial studies has been promoted by Deshna Foundation, a registered trust under Indian trust act 1911 to not only promote add on & supplementary education in area of finance but also to provide continuous professional cross functional and inter disciplinary education for enriching the knowledge by taking research projects in area of finance and other related spheres for benefiting society at large."
Study Circle                  ,N/A,N/A,Bhabroo,"Niwaru Road, Jhotwara, Jaipur, 302012",Delhi, 302012,India,,"Mathematics, Hindi, English, Science, Language, Geography, Computer, All Subjects, History, EVS, Computer Science, Social Studies, Economics, Political Science, Basic Computer, MS Office, Accountancy, Business English, Spoken English, Effective Communication","
	Study Circle is located in the city of Jaipur. Our motto is to make education more simpler. We not only make the students examination ready but also our efficient teacher team make them to choose right career path."
Brains Boosters Education Academy Pvt. Ltd.                  ,N/A,N/A,Amba Bari,"E-19, Bank Colony, Near Central Academy, Amba Bari, Jaipur, 302039",Delhi, 302039,India,,"Abacus Training, Handwriting, Language","
	Brains Boosters Education Academy Pvt. Ltd. is located in Jaipur. We cater to various academic enrichment of the students in Japiur locality. We not only makes the students more confident about the subject and segment but also make them prepare for their future."
Aryans Vedic Mathematics                  ,N/A,N/A,Malviya Nagar,"E-27, Siddhartha Nagar, Jaipur - 302017",Delhi, 302017,India,,Mental Maths,"
	Best efforts are being made to remove all the difficulties of Mathematics to make it a playful and interesting subject. Aryans Vedic Mathematics is a wonderful fusion of Vedic Mathematics and Modern Mathematics which provides step wise solution required in school with lightning fast speed and a high degree of accuracy. It also develops interest in Maths Results are visible from day 1, unlike the other programs where few weeks or months are needed. Also it covers most of the difficult portion of Algebra, Arithmetic, Geometry, Trigonometry, Calculus etc."
Bhashaprofs                  ,N/A,N/A,Tonk Phatak,1/1358 Malviya Nagar- Jaipur,Delhi, 302017,India,,"Chinese, French, German, Japanese, Mandarin","
	Bhashaprofs, welcome to worlds biggest and most innovative language and e-learning platform. Learn your favorite language from the most reputed professors of the industry! We present you detailed classroom lectures of Foreign Languages and also all Indian Languages. We have tied up with top Professors of the industry and we bring their online classrooms to the comfort of your homes. Our videos are fully designed as per curriculum laid by International Certification bodies, hence very helpful to the students who are preparing for various Language Certification Exams. The most interesting this is that our training videos are recroded in your native medium of learning. Our videos are available in both hindi and english language and as such we deliver our best to learn your favorite language in the most easiest way. A one stop destination for all who want to learn any new language. We want to transform the brick-and-mortar classrooms into new-age digital online classrooms that ensure a comprehensive learning experience. We want to enable Professors to expand their reach to far corners of the world and empower students to learn from any Professor of their choice, at any time of their choosing & from any place."
Gupta Tutorials                  ,N/A,N/A,Bapu Nagar,"Tonk Road, Bapu Nagar, Jaipur, 302018",Delhi, 302018,India,,"Commerce Subjects, English, NTSE, Social Studies, Zoology","
	Gupta Tutorials is one of the most reputed tutorials in the city of Jaipur. We cater to school level educations and our excellent faculties team take great care of each and every student."
Vcc Learn English                  ,N/A,N/A,Jhotwara,63 Pushpum Shri Ram Nagar Kalwar Road Jhotwara Jaipur,Delhi, 302012,India,,"Effective Communication, IELTS, Public Speaking, Spoken English, TOEFL","
	Vcc Learn English helps the students to develop their English and helps them to do better in their professional world."
Sniper Academy Of Science                  ,N/A,N/A,Kalwad Road,"B-16,S.K Residency-II,Kalwar Road,Kardhani,Jaipur",Delhi, 302012,India,https://www.myprivatetutor.com/userfiles/centers/center146632456316283.png,"Biology, Chemistry, Commerce Subjects, Mathematics, Physics","
	Ethnic and dynamic environment innovative curriculum with regular performance appraisal and quality education make us different from the rest."
Excellent Career Institute                  ,N/A,N/A,Gopalpura Road,"Ayodhya Tower ,near Riddhi-siddhi Chouraha,gopalpura Bypass,jaipur",Delhi, 302018,India,,"Bank PO, Police Department Exam, Railways Exams, SSC Exams","
	Excellent Career Institute has been offering educational services to the students preparing for the competitive exams. The institute imparts comprehensive training-cum-guidance program which cover all the stages of competitive exams including interview."
Insight Education & Consultancy                  ,N/A,N/A,Raja Park,"2 & 3 Floor S-3 Shopping Center Opp Lbs College Tilak Nagar, Raja Park",Delhi, 302004,India,,"GMAT, GRE, IELTS, PTE, TOEFL","2 & 3 Floor S-3 Shopping Center Opp Lbs College Tilak Nagar, Raja Park"
Aaryabhatt Tution Classes                  ,N/A,N/A,Jhotwara,"Near Khatipura Over Bridge, Jhotwara, Jaipur, 332001",Delhi, 332001,India,,"Biology, Chemistry, English, Mathematics, Physics","
	We, Aaryabhatt tution classes, are just newly founded with new features and excellent methods to study. We believe not in hard work but in smart working."
Tlp - Transformational Learning Point                  ,N/A,N/A,Tonk Phatak,"12, Schivalya Colony, Barakat Nagar, Tonk Pathak, Jaipur, 302015",Delhi, 302015,India,,"All Subjects, English, Mathematics, Physics, School level computer","
	TLP - Transformational Learning Point provide tuition with qualified tutors in any subjects and segment. TLP provide tuition with qualified tutors in any subjects to help with students tutoring requirements. We assist students in different age groups, primary, secondary,high school, junior college students."
Target Career Academy                  ,N/A,N/A,Mansarovar,"53/139, VT Road , Mansarovar, Jaipur",Delhi, 302020,India,,"Biology, Chemistry, Mathematics, Physics, Zoology","

		Small batches. 

		Experience faculties. 

		Regular test.
"
Dev Tuition Point                  ,N/A,N/A,Vaishali Nagar,"66, Brijraj Enclave, Sirsi Road, Panchyawala, Jaipur",Delhi, 302034,India,,"Chemistry, Mathematics, Physics","
	We welcome students who are prepared to interface their experience and diverse backgrounds with our high-end educational programmes, for their transformation to a developed personality prepared to face not only competitive examinations but also succeed in modeling successfully their respective career paths."
Wings Institute                  ,N/A,N/A,Mansarovar,"14/9, Chopasani Housing Board,",Delhi, 342005,India,,"Accountancy, Commerce Subjects, Costing, Economics","
	The mission of our institute to serve the interests of all prospective commerce student by providing professional integrity, quality standards and world-class education for them to succeed professionally in life."
Eduimpulse Institute                  ,N/A,N/A,Agra Road,"Plot No 19a, Krishna Nagar, Near KK Paradise,                       Agra Road, Jaipur-302031",Delhi, 302031,India,https://www.myprivatetutor.com/userfiles/centers/center146278417316010.png,"Chemistry, Education, KVPY Exam, Mathematics, Physics","
	If you are reading this message, you are a liable and caring parent. We appreciate your willing and commitment in choosing the best and most rewarding academic endeavor for your child. "
Explorer Academy                  ,N/A,N/A,Murlipura,"77, Rameshwar Dham, Kedia Palace Road, Murlipura,",Delhi, 302039,India,,"Adventure Camps, Arts & Crafts, Drawing & Painting, Photography, Summer Camps","
	Explorer is a Program for students,where they will explore near 40 activities under single roof.Activities include Sports(Lawn tennis,Table Tennis,Boxing,Karate,Skating, Basket Ball ,Shooting,Archery,Chess, Badminton),Music(Vocal Singing,Guitar,Keyboard),Computers(Graphic Designing,Coral Draw,Photoshop,Animation,Movie-Making,Video Editing,Audio Effects & Robotics),Creativity(Painting,Sketching,Ad-Making),Health(Aerobics,Kathak,Dance,Nutrition,Yoga) and many more. Basic level course(6 months) includes all 40 activities for students,and child will explore each and every activity during this course. Advance level course of few activities are also going on simultaneously."
Excel Classes                  ,N/A,N/A,Khatipura,"Plot No. 36 Om Nagar Near 
Safad Mandir Khirni Phatak 
Khatipura Jaipur

1 Km From Sanskar School Near Vaishali",Delhi, 302012,India,,"Anatomy, Biology, Food & Nutrition","
	Excel Classes as an institute run by a Medical Professional. We provide crash courses for Biology for 11th and 12th along with PMT guidance Biology. Complete course will be completed in 3 months along with mock tests."
Versatile Guru                  ,N/A,N/A,Bani Park,"D-238, Gulab Residency, Bihari Marg
Bani Park Near Collectrate Jaipur
302006",Delhi, 302006,India,,"All Subjects, Computer Science, Mathematics, Physics, Social Studies","
	Versatile guru is an academy provides quality education to the students in the region of Jaipur. We not only cater to the academic enrichment of the student but also help them to built their future."
Vmentor Academy                  ,N/A,N/A,Malviya Nagar,"D-41 Siddharth Nagar , Near NWR , Gator Road Malviya Nagar",Delhi, 302017,India,,"Chemistry, Mathematics, Physics","
	Vmentor Academy is a education center, where you can learn and develop your skills. We are teaching class 1st to 12th classes and some math competition classes."
Samyak I T Solutions                  ,N/A,N/A,Gopalpura,"5 A-5 B, 2nd Floor, Gautam Marg, Vaishali Nagar",Delhi, 302021,India,https://www.myprivatetutor.com/userfiles/centers/center1461749036.jpg,"Accountancy, Chemistry, Commerce Subjects, Computer Science, Economics, English, Hindi, Mathematics, NTSE, Physics, School level computer, Business Maths, IT & Computer Subjects, B.Com Tuition, B.Sc Tuition, B.Tech Tuition, BCA Tuition, Electronics, IT, M.Tech Tuition, Civil, Computer, Electrical, M... More [+]","
	Samyak IT Solutions is started with the sole objective of offering end-to-end IT solutions and integration services through a unique onshore and offshore delivery model, and with a commitment of timely and budgeted delivery. We are headquartered in Jaipur, India which is an upcoming IT hub. We provide business consulting, technology, engineering and outsourcing services to help clients in many countries build tomorrow's enterprise. Our consulting and training services help the organizations build strategies and solve complex problems. We continuously strive to look and listen, observe and understand and then provide the customized yet Smart solutions. Transparency and quality are our core competencies. We promise our clients the timely delivery and their satisfaction until the project completion. We are supported in our mission by our dedicated team of highly qualified and experienced professionals which extend benefits that endorse our assurance of competence and sustainability."
Meritto Educare Pvt. Ltd.                  ,N/A,N/A,Riddhi Siddhi,"502, Surya Nagar, Gopalpura By Pass",Delhi, 302018,India,,"AIEEE, IIT JEE Mains, AIPMT","
	Meritto Educare Pvt. Ltd. ventured into coaching education keeping in mind to serve the students the best of coaching for India's toughest competitive exam (JEE-Main+Advanced and AIPMT) to get a place in India's most prestigious Engineering and Medical institution."
