Name,Phone,Website,Area,Address,City,Pincode,India,Image,Category,About
Metaphor Consulting                  ,N/A,N/A,Sonari,"METAPHOR CONSULTING E-11, 3rd Floor, Ankur Complex, Kagalnagar, Sonari, Jamshedpur",Delhi, 831011,India,,SAP Certification,"
	Metaphor Consulting provides live training and job assurance in SAP across Globe. Sap Training has been established with the sole objective to dedicate itself for quality service in SAP Sector. We share our experiences in the SAP department what we had experience in the industry."
Safe Launcher                  ,N/A,N/A,Bistupur,"Bharat Business Centre, Near Ram Mandir, Beside HDFC Bank 
Bistupur, Jamshedpur, Jharkhand",Delhi, 831001,India,,"Botany, Chemistry, Mathematics, Physics, Zoology, Biology","
	We take care of individual students. All necessary guidance are provided by us. Safe Launcher are here to bring out your best qualities to the fore and rectify the weak areas. Joining our classes will help you build your dream career."
Computer India Software Training & Hardware Maintenance                  ,N/A,N/A,Sakchi,"99, Dharam Arcade, Beside Narayani International, Thakurbari Road,aambagan, Sakchi, Jamshedpur, Jharkhand",Delhi, 831001,India,,"Android Training, Ethical Hacking, Hardware Training, Networking, Unix/Linux","99, Dharam Arcade, Beside Narayani International, Thakurbari Road,aambagan, Sakchi, Jamshedpur, Jharkhand"
Irodov Classes                  ,N/A,N/A,Mango,"Irodov Classes 
Near Suman Hotel , Behind Mishra Clinic 
Dimna Chowk , Mango 
Jamshedpur",Delhi, 831018,India,,"Chemistry, Mathematics, Physics","
	Irodov Classes holds expertise in providing guidance to school level subject and segment and engineering entrance examination. Situated in Jamshedpur, we provide intense training programs for techies to learn and enhance their skills."
R.k Pandey Maths Classes                  ,N/A,N/A,Baridih,"BARIDIH , NEAR SHARP COMPUTERS",Delhi, 831017,India,,Mathematics,"BARIDIH , NEAR SHARP COMPUTERS"
Prayas Coaching                  ,N/A,N/A,Agrico,"45/A  Mills And Godown Area ,bank Of Baroda Building  First Floor ,in Front Of Bank Of Baroda,bhuiyadih,timken Choak,Jamshedpur",Delhi, 831009,India,https://www.myprivatetutor.com/userfiles/centers/center145677379215423.jpg,"Algebra, Physics, Mathematics, Chemistry","45/A  Mills And Godown Area ,bank Of Baroda Building  First Floor ,in Front Of Bank Of Baroda,bhuiyadih,timken Choak,Jamshedpur"
Nemesis Automations Private Limited                  ,N/A,N/A,Golmuri,"H.no- 95,first Floor,golmuri, Masjid Road",Delhi, 831003,India,https://www.myprivatetutor.com/userfiles/centers/center1450518342.jpg,"Computer Science, Electronics, Physics, Polytechnic, Android Training, CCNA Certification, Embedded Systems, Robotics, Auto CAD, Electrical, Mechanical, AutoCAD  Training, MATLAB Training, PLC Training, SCADA Training","
	We welcome students who are prepared to interface their experience and diverse backgrounds with our high-end educational programmes, for their transformation to a developed personality prepared to face not only competitive examinations but also the board examinations and other school level examinations succeed in modeling successfully their respective career paths. "
The Scholars Hub Bistupur                  ,N/A,N/A,Bistupur,"H. No.21-22, 2nd Floor, Avishkar Bumbra Enclave, Q Road, Bistupur",Delhi, 831001,India,,"Biology, Chemistry, Mathematics, Physics","
	As the children move ahead on their career path the quintessential search for a quality after school program begins. We, in The Scholars' Hub, will usher children in a better prospect for a brighter future and would also help them to invent and establish their innate talents besides building a sound academic base to excel in exams. The Scholars' hub is the ultimate learning environment, conceptualized as the neighborhood tuition centre by an excellent pool of talented and passionate academicians and professionals."
Ica Sakchi                  ,N/A,N/A,Sakchi,"121, Birenu Asha Palace, Sanjay Road, Sakchi",Delhi, 831001,India,https://www.myprivatetutor.com/userfiles/centers/center1424078742.jpg,"Accounts, Business Analytics, Financial Management, HR/Personnel, Investment Training, Project Management, SAP Training, Stock & Share Trading, Tally ERP 9, Accountancy, B.Com Tuition, B.Sc Tuition, Banking & Finance, BBA Tuition, BCA Tuition, IT, BBA, BCA, MBA, MCA, PG Diploma, Mobile Repairing, BB... More [+]","
	ICA Sakchi provides program which are beneficial to the unemployed youth for Integrating frontiers of technology and excelling in Corporate Value. Here intensive coaching on all the aspect of the courses happens to be our prime focus. Easy subject approach is maintanined during the classes. Whatever programs we have made available for the students are extremely industry relevant."
Ica Bistupur                  ,N/A,N/A,Bistupur,"Gf 4,  H. S. Tower, L Road, Bistupur",Delhi, 831001,India,https://www.myprivatetutor.com/userfiles/centers/center1424078742.jpg,"Accounts, Business Analytics, Financial Management, HR/Personnel, Investment Training, Project Management, SAP Training, Stock & Share Trading, Tally ERP 9, Accountancy, B.Com Tuition, B.Sc Tuition, Banking & Finance, BBA Tuition, BCA Tuition, IT, BBA, BCA, MBA, MCA, PG Diploma, Mobile Repairing, BB... More [+]","
	ICA Bistupur is known for its intensive coaching on all the aspect of the courses. We maintain an easy subject approach during the classes. Regular study materials provided here are of superior quality. Industry relevant educational service is provided by the institute. Here students are entitled to get a great learning environment."
Metaphor Consulting                  ,N/A,N/A,Sonari,"E-11, 3rd Floor, Ankur Building, Adarsh Nagar, Kagal Nagar, Sonari",Delhi, 831011,India,https://www.myprivatetutor.com/userfiles/centers/center1421399448.jpg,"Life Coaching, SAP Training",N/A
Chanakya Career Academy                  ,N/A,N/A,Sakchi,"50, Thakurbari Road, Sakchi",Delhi, 831001,India,https://www.myprivatetutor.com/userfiles/centers/center1421818188.jpg,"Bank PO, Railways Exams, School Service Commission, SSC Exams","
	We would like to take this opportunity to introduce ourselves as part of career institute like Chanakya Career Academy. We provide quality education at an affordable fee. By a team of such an experienced and dedicated teachers who creates wonders in your career. We assure you to provide our best effort for everything for your bright future. Its students have consistently achieved the top ranks in competitive examinations across the nation. With a proven track record in creating high achievers, Chanakya Career Academy is now starting Institute with a vision to create the same success. Chanakya Career Academy's tradition lays greater emphasis on the value of education. Our education system shapes the personality and character of an individual and cultivates life skills. The coaching environment for Railways, Banking, & other competitions is undergoing a major paradigm shift with the acceptance of continuous improvement.  What has changed is the way the institutes are now required to identify, assess and put in place a well - articulated management framework with proper analytical tools, processes and information. "
The Guardian Classes                  ,N/A,N/A,Sakchi,"15, Aambagan, Sakchi",Delhi, 831001,India,https://www.myprivatetutor.com/userfiles/centers/center1453291552.jpg,"Railways Exams, SBI Exam, School Service Commission, SSC Exams","The Guardian Classes a leading institution preparing students for various competitive examinations like, MBA, Bank P.O./Clerk, SSC, RLY, NET, SLET, JRF etc. held by government and non-government organizations in India. Since its inception, it has been unflinchingly dedicated to quality education and shaping the future of its students. We believe in the multifaceted development of our students and for that we make incessant endeavour to the best our wisdom and potential. The institution provides all information about the upcoming entrance examinations in the class itself and undertakes complete responsibility of preparing its students for screening tests and personal interviews. "
The Aaa Ias                  ,N/A,N/A,Sakchi,"3rd Floor, Safia Complex, Aam Bagan, Sakchi",Delhi, 831001,India,,"Bank PO, Railways Exams, SBI Exam","
	We have launched the Agastya Achievers Academy with Faculties who understand the intricacies of their job and are capable of changing the leaders in the city. Our faculty is our pride, who have carved a niche for themselves in their respective sphere of performance and are capable of connecting with the students and lift them to the pinnacle of the glory. For us, chiseling a potential talent is of paramount importance and we beckon those with a burning desire to succeed and prove themselves with an open Head and Heart. The aspirants will fill the difference in personalized attention and treatment by faculty members. The institute is commited towards provinding the neccesary counselling, guidance, classroom"
Gibm                  ,N/A,N/A,Sakchi,"15-A, SNP Area, 2nd Floor,
MS Complex, Near Indralok Hotel,
Aambagan, Sakchi,
Jamshedpur",Delhi, 831001,India,,"Railways Exams, SBI Exam, School Service Commission, SSC Exams","
	The Institute GIBM is a leading educational Institute of Jamshedpur. Experienced and skilled workers offer quality coaching for students. The Course Fee is affordable. The study environment is good and the study material provided is good."
Ideal Industrial Training Center                  ,N/A,N/A,Sakchi,"Ho ; 15a, M. S. Complex, Aambagan Road",Delhi, 831001,India,https://www.myprivatetutor.com/userfiles/centers/center1421833025.png,".Net, Java and J2EE, PHP and MySQL, Web Designing, Web Development","
	The Ideal Industrial Training Centre Has Been Established by some dignified person of jamshedpur and managed by a competent registered governing body.The institute is also supported by leading industrial houses and Government officials.   The institute is situated in the middle point of twin city of sakchi & mango. The place is connected with frequent auto service at every minutes. It is registered under society Registration Act and is affiliated to the NCVT(National Council For Vocational Training),Govt. of India,New Delhi, Through state council for Technical Education & Vocational Traning,Directorate of Labour Employment &Traning Govt. of jharkhand Ranchi.   The aim of the institute is to impart training to the educated unemployed youths in NCVT approved ITI courses to make them suitable for industrial employment,particularly,keeping is view the coming steel plant/industrial growth in jharkhand and for gainful self employment. The institute has its own building, workshop equipped with all type of machinery,tools etc, (as for NCVT norm) and a full fledged technical book."
Ifcon Academy                  ,N/A,N/A,Sakchi,"101, 2nd Floor, Alisons Apartment, Thakurbari Road, Near Aambagan, Sakchi",Delhi, 831001,India,,".Net, Java and J2EE, PHP and MySQL, Web Designing, Web Development","
	We at Ifcon Academy to advance competitiveness, influence and reputation provide students with support in teaching, research and the administration of the teaching facility, through the effective deployment of information technology. We are committed to innovate and improve the quality of the Ifcon Academy’s services to students, faculty and staff. We collaborate with other institutions and business enterprises on mutually beneficial opportunities that support our goals. We commit to anticipate and respond to our clients’ needs. We partner with them to find and determine the appropriate solutions. We respect our staff and value their contributions. We provide opportunities for professional growth, job satisfaction and leadership."
Narayan Iit Academy                  ,N/A,N/A,Sakchi,"1st Floor, Seagull Apartment, Near Bengal Club,
Sakchi",Delhi, 831001,India,https://www.myprivatetutor.com/userfiles/centers/center1421322504.jpg,"AIPMT, IIT JEE Mains","
	The Narayana Group, with huge years of experience in teaching for competitive examinations, has the expertise to make you succeed. We are offering you, dear student, the best of our time-tested expertise through our courses by correspondence. For Narayana, correspondence courses are not just a business area, but a commitment for building a high caliber Engineers & Medicos as the power base of our country. The institute has explored the field of latest technology based correspondence course in preparing its study material. Apart from the study material, there are graded assignments in each topic containing objective and subjective problems & their solutions for self analysis as per various entrance examinations."
Arya Ias Academy                  ,N/A,N/A,Sakchi,"45, Thakurbari Road,
Sakchi",Delhi, 831001,India,,"Bank PO, Railways Exams, RBI Exam, SBI Exam, School Service Commission",Quality teaching and guidance to the students who aspire to prepare for the Government and Private services and professional services in various sectors. We ensure that students gain best knowledge from our experienced faculty and well planned programmes. Arya IAS Academy has earned its repute through its fixed focus to quality and ethical practice.
Cncs College Of Education                  ,N/A,N/A,Sakchi,"S/7, 2nd Floor, Shatabdi Tower, Snp Area, Sakchi",Delhi, 831001,India,https://www.myprivatetutor.com/userfiles/centers/center1453707782.jpg,"B.Com Tuition, BA Tuition, Management Subjects, Basic Computer, ERP Training, School level computer","
	CNCS College of Education is a leading educational Institution of Jamshedpur. All traditional and new sought after courses like B.A., B.Com, Mass Communication, IT courses, Fire ans safety Management is offered at moderate price. We have the right environment to bring out your best potential. The study material provided is good and personal care is taken."
Cad Professionals                  ,N/A,N/A,Sakchi,"4th Floor, Shatabdi Tower, Isnp Area, Sakchi",Delhi, 831001,India,https://www.myprivatetutor.com/userfiles/centers/center14205358106833.png,".Net, 2D Animation, 3D Animation, 3D Max / Maya, 3D Printing, Adobe Tools, Advanced Excel, AJAX Training, Android Training, AutoCAD, Basic Computer, BCA Subjects, Big Data & Hadoop, Blog Programming, Business System & Infrastructure Management, C, C++, C# (C Sharp), CCNA Certification, Cisco certifi... More [+]",N/A
Igs                  ,N/A,N/A,Sakchi,"2c, 2nd Floor, Aditya Raza, Mansion,
Sakchi",Delhi, 831001,India,https://www.myprivatetutor.com/userfiles/centers/center1421322450.jpg,Tally ERP 9,"Information Global Services has brought training programmes in ERP, HR and other areas with assured quality. Opting our programmes have benefited a large number of students who are working successfully in various knowledge segments. "
Mist Plus                  ,N/A,N/A,Sakchi,"S2/3rd Floor, Shatabdi Tower, Sakchi",Delhi, 831001,India,https://www.myprivatetutor.com/userfiles/centers/center1420869003.jpg,"AIEEE, AIPMT, IIT JEE Mains","The institute was established with a concept to provide objective learning education in a different, innovative and affordable learning environment in the challenging field of IIT-JEE, AIEEE, Medical Entrance preparation. The institute was named as makers of Indian Science talents with the objective of searching the latent young talents from the suppressing and unsupportive milieu and nurture them for proper development, ramification and exposure. Sincere and focused guidance are the prime movers of the inquisitive minds of talents hitherto unexplored and unexposed. Needless to say, our dedicated endeavor to nurture and further enrich the young minds."
Nsibm                  ,N/A,N/A,Sakchi,"85, 4th Floor,
Shatabdi Tower
Sakchi",Delhi, 831001,India,https://www.myprivatetutor.com/userfiles/centers/center1420868953.jpg,"BBA Tuition, BCA Tuition, Management Subjects","
	Netaji Subhas Institute of Business Management is a name to reckon with in management education. Since its inception the institute maintains a consistent record of producing well-rounded professional with academic excellence and adaptive application skills welcomed by industry and business. It has earned the distinction as a center of execellence in management studies. The institute, an ISO-accredited organization, is approved by AICTE New Delhi and Department of Science & Technology, Government of Jharkhand, and affliated to Kolhan University, Chaibasa."
Study Palace                  ,N/A,N/A,Sakchi,"3rd Floor,
53, Thakurbari Road,
Sakchi,
Jamshedpur",Delhi, 831001,India,,"B.Ed Tuition, SAP Training, Tally ERP 9","
	The Institute Study Palace is a leading educational Institution of Jamshedpur. Experienced and skilled teachers teach the intricacies of the subjects. Course fee is affordable and study environment is good. Regular mock tests are taken."
Siit                  ,N/A,N/A,Sakchi,"3rd Floor,
Alisons Apartment,
101, Thakurbari Road,
Sakchi,
Jamshedpur",Delhi, 831001,India,,"CCNA Certification, Hardware Training, Networking, Unix/Linux","
	The Institute SIIT is a leading educational Institute of Jamshedpur. Experienced and skilled teachers and trainers teach the students the intricacies of the subjects. The study material offered is good and the study environment too is of high standard. In short it can be said that is a complete computer solution under one roof."
St. Francis College Of Engineering & Technology                  ,N/A,N/A,Sakchi,"124, Ground Floor,
Sanjay Road,
Sakchi,
Jamshedpur",Delhi, 831001,India,,"Management Subjects, Civil, Electrical, Electronics, IT, Mechanical","
	The Institute St.Francis College of Engineering & Technology is a leading educational Institution of Jamshedpur. Skilled and experienced teachers make the students learn the intricacies of the subjects. Course fee is affordable and the study environment is good. Moreover, the study material provided is of high standard."
Zain Management Academy                  ,N/A,N/A,Sakchi,"101/3, Alisons Apartment,
Aambagan, Sakchi",Delhi, 831001,India,https://www.myprivatetutor.com/userfiles/centers/center14205265216821.png,Management Subjects,"
	Zain Management Academy has been established by Md. Naushad Alam, an ex-Indian Air Force personnel having served the armed forces for 20 years and worked with professionals from diverse background and cultures at diverse locations and is having overall experience and expertise of 27 years in the HR and Admin stream. He has the vision to establish Zain Global Education Hub in Jamshedpur with education, infrastructure and facilities of international standards.  "
