Name,Phone,Website,Area,Address,City,Pincode,India,Image,Category,About
Excellence                  ,N/A,N/A,Phoolbagan,"71/3 Canal Circular Road. Prasad Exotica- Block 8, Flat 6f., Phoolbagan, Kolkata, 700054",Delhi, 700054,India,https://www.myprivatetutor.com/userfiles/centers/center147340010616243.png,"English, Hindi, Geography, History","
	Excellence is an premium institutes located near Phoolbagan area .We provide Coaching classes for ICSE/ CBSE board students for all classes. We are mainly focussing on English and Hindi litarature and languages .Along with that we are focussing on History and Geaography also for class 9-10 ICSE/CBSE students.We provide coaching for the communicative english and grooming for the junior level students."
Icse/cbse Coaching                  ,N/A,N/A,Alipore,"H/O Uttam Shorf ( 2nd Floor) 56/2A , Gariahat Road, Kolkata-700019.",Delhi, 700019,India,,"Chemistry, Mathematics, Physics","
	ICSE /CBES COACHING FOR CLASS 8-10 is a premium chaching center located at ballygaunge which is  one of the most convenient area of kolkata and providing high quality tutoring to the class 8- 10 students in science and maths."
L'avenir                  ,N/A,N/A,Golf Green,A-51  Lake Gardens,Delhi, 700045,India,https://www.myprivatetutor.com/userfiles/centers/center1473165768.png,"Biology, Chemistry, English, Mathematics, Physics, Social Studies, History, Study in Australia, Study in Canada, Study in China, Study in Dubai, Study in New Zealand, Study in Singapore, Study in UK, Study in USA","L'avenir is a start up Organisation located at a very convenient area of Kolkata, Lake Gardens.  We provide Academic counselling for choosing a right career after Class 12 for Indian and Foreign Universities. We also provide tutorials for Science, Mathematics, English and Social Studies for classes 9-12."
Iact-garfa                  ,N/A,N/A,Garfa,"45/33, Vivekananda Sarani, P. O - Haltu, Garfa, Kolkata, 700078",Delhi, 700078,India,https://www.myprivatetutor.com/userfiles/centers/center147219183416300.jpg,"Corel Draw, Dreamweaver, DTP, Flash, Graphic Designing, HTML Training, Multimedia, Photoshop, Web Designing, .Net, C, C++, C# (C Sharp), Java and J2EE, Visual Basic, Java Script, PHP and MySQL, Basic Computer, Computer for official job, MS Office, School level computer, Tally ERP 9","45/33, Vivekananda Sarani, P. O - Haltu, Garfa, Kolkata, 700078"
Psb Tutorials                  ,N/A,N/A,Purbachal Kalitala Road,1209 Kalikapur1,Delhi, 700032,India,,"All Subjects, Biology, Computer, Language, Physics, Business English, Corporate Communication, Advanced Excel, Basic Computer, Creative dance, Folk Dance","
	PSB Tutorials started its journey in the year 2008 with a single batch of 3 students and now it continues to lead numbers of students from various universities to reach their career goals in various fields. In a MARKET where students pursuing a professional degree had to run from one place to another to train, PSB provides specialized & experienced faculty teaching all subjects as per the convenience of the students. PSB eased the way for education through online tutoring and making education available to all students and working professionals. We drive to focus on specialized and convenient pattern of education by taking regular feedback from the students to create a student friendly atmosphere thereby making learning enjoyable and understandable."
Conqcorp Management Solution                  ,N/A,N/A,Bagmari,"55/2, Kankurgachi 2nd Lane,1st Floor, Kankurgachi,Kolkata-54",Delhi, 700054,India,https://www.myprivatetutor.com/userfiles/centers/center1442572480.jpg,"English, Business English, Corporate Communication, Effective Communication, Public Speaking, Spoken English","We are offering customized quality training programmes for developing, grooming and differentiating an individual in the fast paced Corporate space. Placement assistance against our corporate training courses like HR, Sales and Marketing and BPO. Resume writing services at affordable rates. EMI options for the course fees to make them pocket-friendly. We focus on practical and innovative ways of trainingand encourage our candidates to develop a go-get it attitude as we are highly result-oriented."
Mock Test Offline                  ,N/A,N/A,Netaji Nagar,"10/14/1, Ground Floor, Netaji Nagar, Kolkata, 700040",Delhi, 700040,India,https://www.myprivatetutor.com/userfiles/centers/center147018761816527.jpg,"CS - Executive, CS - Foundation, CS Professional, Bank Clerical, Bank PO, IBPS, Railways Exams, RBI Exam, SBI Exam, School Service Commission, SSC Exams, WBCS","
	Mock Test Offline is a highly regarded coaching and training center located in the city of Kolkata, specializing in all competitive examinations and co related segment and subjects."
Niit Sonarpur Centre                  ,N/A,N/A,Baghajatin,"Niit Sonarpur, Holding No. 473, Jagannathpur, Simultala, Sonarpur Station Road, Sonarpur",Delhi, 700150,India,https://www.myprivatetutor.com/userfiles/centers/center147141381416518.jpg,"Financial Management, .Net, C, C++, C# (C Sharp), Java and J2EE, Perl Programming, Python Programming, Shell Scripting, Visual Basic, Java Script, PHP and MySQL, Advanced Excel, Basic Computer, Computer for official job, MS Office, Tally ERP 9","Niit Sonarpur, Holding No. 473, Jagannathpur, Simultala, Sonarpur Station Road, Sonarpur"
Arena Animation                  ,N/A,N/A,Ultadanga,"Merlin Warden Lake View, 1st Floor, 104, Bidhannagar Road, Besides Bidhannagar Road Railway Station, Kolkata, 700067",Delhi, 700067,India,https://www.myprivatetutor.com/userfiles/centers/center1454328252.jpg,"2D Animation, 3D Animation, 3D Max / Maya, 3D Printing, Adobe Tools, Animation, Ansys, AutoCAD  Training, Corel Draw, CSS Training, Dreamweaver, DTP, Flash, Games Development, Graphic Designing, HTML Training, Illustrator, Multimedia, Photoshop, Special Effects, Video Editing, Web Designing, Web Dev... More [+]","
	Arena Animation Ultadanga is the Animation, Web designing, VFX & Multimedia education arm of Aptech Ltd. Over the decades, Arena Animation Ultadanga has successfully trained more than 400,000 students through its career-oriented courses. The market outside India is much bigger & Indian companies work on outsourced international animation projects as well. Such a huge & growing industry requires thousands of skilled, trained people to work in animation studios, ad film & VFX companies, video processing & editing studios, and others.  To prepare you for a well-paying career in this field, Arena Animation Ultadanga provides world-class education through a wide network of centres in 20 countries."
Nice-ics                  ,N/A,N/A,Dalhousie,"Nice,8/1,  Lalbazar Street, Ground Floor, Kolkata",Delhi, 700001,India,https://www.myprivatetutor.com/userfiles/centers/center1470041820.jpg,"Business English, Corporate Communication, Effective Communication, IELTS, Public Speaking, TOEFL, GMAT, GRE, SAT, MBA Entrance, CMAT, Hotel Management Entrance, MAT, XAT","
	 "
Softz Solutions                  ,N/A,N/A,Kalikapur,"1209, Purbachal Main Road. Kolkata 700078",Delhi, 700078,India,https://www.myprivatetutor.com/userfiles/centers/center1402469020.jpg,"Web Designing, Web Development, School level computer, Robotics, Programming Language, PHP and MySQL, MS Office, Android Training, Java and J2EE, Hardware Training, .Net, Digital Marketing, Computer for official job, Cloud Computing, C, C++, Big Data & Hadoop, Basic Computer, Advanced Excel, Tally E... More [+]","
	Softz Solutions, an esteemed digital marketing and web development centre, has emerged to be the stop destination for Self-Paced and Video Tutorials. Aspirants from varied educational background can now avail this ideal opportunity to accomplish independent learning experience. The self paced tutorials are designed by qualified and experienced trainers in a consolidated format with meticulous and exhaustive research work to plan the course materials."
Institute Of Management Study                  ,N/A,N/A,Em Bypass,93 Mukundapur Main Road,Delhi, 700099,India,https://www.myprivatetutor.com/userfiles/centers/center1468931471.jpg,"Accountancy, Business Studies, Commerce Subjects, Computer Science, Costing, Economics, IT & Computer Subjects, Mathematics, B.Com Tuition, BBA Tuition, BCA Tuition, BHA, BTTM, IT, BBA Entrance, BBA Subjects, MBA Entrance, Management Subjects, MHA","
	Inspired by the noble cause of education, Institute of Management Study began its curriculum from July 2006. It is one of the new age B-Schools, set up with the objective to provide Undergraduates well as Postgraduate programes in Management and Computer Application under the affiliation of recognized University."
Eklavya Education                  ,N/A,N/A,Cit Road,"27, Christopher Road, Ekta Floral,",Delhi, 700046,India,,"Biology, Chemistry, Mathematics, Physics, AIEEE, BITSAT, IIT JEE Mains, WBJEE, AIPMT, Medical Entrance Exams, PG Medical, Zoology","27, Christopher Road, Ekta Floral,"
Mitras' Tri Star Tutorial                  ,N/A,N/A,Bagbazar,"14/A, Nabin Sarkar Lane, Kolkata, 700003",Delhi, 700003,India,,"All Subjects, Computer, English, EVS, Geography, Hindi, History, Mathematics, Science, Bengali, Biology, Chemistry, Computer Science, Physics, School level computer, Social Studies, Accountancy, Commerce Subjects, Economics, Arts Group, Botany, Business Maths, Business Studies, Costing, Food & Nutri... More [+]","
	Mitra Tutorials is a reputed brand in providing quality training to students. Our institute promises to impart adequate knowledge and teach the fundamentals of the subject so that the student can understand & retain the essence of the subject in his/her mind & does not forget the same once the examination is over. The broader objective is to create interest in the subject and help in reproducing the same in the Examination Hall, emphasis will be placed on practical solution also. Equally,students will be given enough opportunity to speak/deliberate on a subject to sharpen their verbal communication skills . The institute envisages bringing together the best practices that deliver quality knowledge solutions for all students. Individual Attention will be given to the students keeping in mind the specific requirements of the students."
Gurukul Activity Centre                  ,N/A,N/A,Tollygunge,"78, Regent Place, Ground Floor, Kolkata, 700040",Delhi, 700040,India,,"Karate, Roller Skating, Meditation, Yoga, Zumba, Guitar, Bharat Natyam, Kathak, Bollywood, Western Dance, Abacus Training, Communicative English, Mental Maths, Personality Development, Acting & Drama, Arts & Crafts, Drawing & Painting, Fashion Designing","
	As an institute Gurukul Activity Centre has been setup up the people who are extremely passionate about education and believe in more than just teaching. We are dedicate to improve the quality of education currently being imparted to student who are about to choose their future careers."
Master Minds Coaching Centre                  ,N/A,N/A,Kalikapur,"148, Kalitala Main Road, Purbachal, P.S. Garfa, KOLKATA - 700078
( Avishikta More, Opposite Avishikta 2, Behind Bank Of India).",Delhi, 700078,India,https://www.myprivatetutor.com/userfiles/centers/center146191583415794.jpg,"Accountancy, Biology, Business Maths, Business Organisation, Business Studies, Chemistry, Commerce Subjects, Economics, Mathematics, Physics, Statistics, AIEEE, IIT JEE Mains, WBJEE, AICEE, AIPMT, Medical Entrance Exams","
	Director's Message: "
Edu-e-lite                  ,N/A,N/A,Shaker Bazar,"56/ 1 D, Santosh Roy Road, Kolkata-8",Delhi, 700008,India,https://www.myprivatetutor.com/userfiles/centers/center145925874314376.png,"Bengali, Biology, Botany, Chemistry, Commerce Subjects, Computer Science, English, Geography, IT & Computer Subjects, Mathematics, Physics, Statistics, Zoology, B.Sc Tuition, BCA Tuition, Bio Chemistry, Big Data & Hadoop, Data Structures, DBMS & RDBMS, PL/SQL, Computer, Electrical, Electronics, IT, ... More [+]","
	We welcome students who are prepared to interface their experience and diverse backgrounds with our high-end educational programmes, for their transformation to a developed personality prepared to face not only competitive examinations but also succeed in modeling successfully their respective career paths. "
Talent Prima Academy                  ,N/A,N/A,Airport 1 No Gate,"Kristi Apartment, Ground Floor, Kaikhali, Kol-52",Delhi, 700052,India,,"Accountancy, Algebra, Biology, Botany, Business Maths, Business Organisation, Business Studies, Chemistry, Commerce Subjects, Computer Science, Costing, Economics, English, Mathematics, Physics, Statistics, Zoology, Auditing, B.Com Tuition, Banking & Finance, BBA Tuition, Bio Chemistry, Bio-medical,... More [+]","
	An unique institution engaged in imparting quality and result oriented education & building professional skills and abilities to students to meet Industry's growing requirement in the field of Science, Commerce, Management, IT from the very beginning from Class XI to Post Graduate level. An unique initiative by Eminent and experienced Faculties across various Boards/Universities and vastly experienced Industry’s Professionals from HR, Finance, IT, Sales & Marketing domain. Our aim is not only to impart quality and specialized Education but also guiding students in planning, development and advancement of their career by proving industry specific knowledge and skill on the latest changes, trends, techniques, and methodologies used by the practicing professional to keep pace with the dynamic business environment. We have an expert Council consist of highly experienced Professionals from IT, Management, Finance, Technical domain to guide students in acquiring Industry specific domain Knowledge and Skills, enhancing capabilities on Group Discussion and Personal Interview Techniques, General Aptitude Building Exercise, Spoken English ability, acquiring Advance Excel & Microsoft Office Management Skill etc. and most importantly driving placement opportunity for fresher’s with reputed organizations. The Students can gain valuable perspective and indulge in experience sharing, ensuring up-to-date knowledge exchange through regular Interaction with our expert council."
Futurite Education Bhawanipur                  ,N/A,N/A,Bhowanipore,"C/o Dew Drops - 27 B, Dr. Rajendra Road, Kolkata 700020",Delhi, 700020,India,https://www.myprivatetutor.com/userfiles/centers/center1453371625.jpg,"Mathematics, 3D Printing, Advanced Maths, Coding & Programming, Robotics","
	Futurite aims to bring high quality STEM (Science, Technology, Engineering and Mathematics) education to school students in India. Our mission is to use cutting-edge technologies such as Robotics and 3D Printing to impart a thorough grounding in STEM subjects and concepts to school students while making their learning experience fun, engaging and hands-on. Futurite has been operating in Dubai successfully (as Premier Genie) since a number of years, working with over 25 of the top international schools and teaching 1000+ students. Futurite has been founded by alumni from IIT, IIM, JU and HEC Paris."
Futurite Education New Town                  ,N/A,N/A,Narkeldanga,"Uniclub One, Uni World City
Unitech Action Area 3, New Town",Delhi, 700160,India,https://www.myprivatetutor.com/userfiles/centers/center1453371625.jpg,"Mathematics, 3D Printing, Advanced Maths, Coding & Programming, Robotics","
	Futurite aims to bring high quality STEM (Science, Technology, Engineering and Mathematics) education to school students in India. Our mission is to use cutting-edge technologies such as Robotics and 3D Printing to impart a thorough grounding in STEM subjects and concepts to school students while making their learning experience fun, engaging and hands-on. Futurite has been operating in Dubai successfully (as Premier Genie) since a number of years, working with over 25 of the top international schools and teaching 1000+ students. Futurite has been founded by alumni from IIT, IIM, JU and HEC Paris."
Futurite Education                  ,N/A,N/A,Jadavpur,"796, Purbachal Road, Behind Florence. 
Prince Anwar Shah Connector",Delhi, 700078,India,https://www.myprivatetutor.com/userfiles/centers/center1453371625.jpg,"Abacus Training, Communicative English, Creative Writing Classes, Mental Maths, Olympiad Exam Preparation, Computer, Mathematics, Computer Science, NTSE, School level computer, Aero Modelling, Model Making, Summer Camps, 3D Printing, Advanced Maths, Coding & Programming, Robotics, Science Projects","
	Futurite aims to bring high quality STEM (Science, Technology, Engineering and Mathematics) education to school students in India. Our mission is to use cutting-edge technologies such as Robotics and 3D Printing to impart a thorough grounding in STEM subjects and concepts to school students while making their learning experience fun, engaging and hands-on. Futurite has been operating in Dubai successfully (as Premier Genie) since a number of years, working with over 25 of the top international schools and teaching 1000+ students. Futurite has been founded by alumni from IIT, IIM, JU and HEC Paris."
Anupam Chattopadhyay Tutorials                  ,N/A,N/A,Patuli,"Aptt: Yojangandha, Baishnabghata Patuli Township. Block N-359,",Delhi, 700094,India,,"ACCA, CA - CPT, CA - Final, CA - IPCC, CFA, CFP, CIMA Certification, CMA Final, CMA Foundation, CMA Intermediate, CMA-CPA-ACCA-CIMA, CPFA, CS - Executive, CS - Foundation, CS Professional, Direct Tax Laws, ICWA & ICWAI, Accountancy, Business Organisation, Business Studies, Commerce Subjects, Costing... More [+]","
	Anupam Chattopadhyay Tutorials is a reputed brand in providing quality training to students. Our institute promises to impart adequate knowledge and teach the fundamentals of the subject so that the student can understand & retain the essence of the subject in his/her mind & does not forget the same once the examination is over.The broader objective is to create interest in the subject and help in reproducing the same in the Examination Hall, emphasis will be placed on practical solution of Sums in Accountancy to enable the students to complete the sums within the given time.Equally,students will be given enough opportunity to speak/deliberate on a subject to sharpen their verbal communication skills . The institute envisages bringing together the best practices that deliver quality knowledge solutions for all students. Individual Attention will be given to the students keeping in mind the specific requirements of the students. Keeping the interest of students in mind the course have been designed by us to make it easily adaptable to students yet covering all the important aspects related."
Success Study Point                  ,N/A,N/A,Bhowanipore,"18 A Townshend Road, Bhowanipur",Delhi, 700025,India,,"Accountancy, Actuarial Science, Anthropology, Arts Group, Auditing, B.Arch Tuition, B.Com Tuition, B.Ed Tuition, B.Sc Tuition, BA Tuition, Banking & Finance, BBA Tuition, BCA Tuition, Bengali, Bio Chemistry, Bio Technology, Bio-informatics, Bio-medical, Biology, Botany, Business Maths, Chemistry, Co... More [+]",All school level subjects are taught by domain experts with individual attention. Joining our classes enables a student to develop depth of knowledge and confidence in their abilities. all round guidance and preparation programme is provided.
Dream Teachers                  ,N/A,N/A,Girish Park,8 C Madanmitra Lane Kol-06,Delhi, 700006,India,https://www.myprivatetutor.com/userfiles/centers/center1446613702.jpg,"Advanced Excel, Basic Computer, Computer for official job, MS Office, School level computer, Tally ERP 9, ACCA, CA - CPT, CA - Final, CA - IPCC, CFA, CFP, CIMA Certification, CMA Final, CMA Foundation, CMA Intermediate, CMA-CPA-ACCA-CIMA, CPFA, CS - Executive, CS - Foundation, CS Professional, Direc... More [+]","
	We are having quality teachers who have expertise in their own field. We take care of individual students. All necessary guidance are provided by us. Dream Teachers are here to bring out your best qualities to the fore and rectify the weak areas. Joining our classes will help you build your dream career and a responsible citizen of India."
Institute Of International Trade                  ,N/A,N/A,Salt Lake,"EN-27 SALT LAKE CITY SEC5, KOLKATA- 700 091",Delhi, 700091,India,https://www.myprivatetutor.com/userfiles/centers/center1454908849.jpg,"CA - IPCC, Adobe Certification, MBA, Management Subjects","
	INSTITUTE OF INTERNATIONAL TRADE has always aims to develop entrepreneurial initiative in the promising business opportunities. We assist the planning, development, and advancement of individual career and also disseminate information on the latest changes, trends, techniques, and methodologies to the practicing managers to keep pace with the dynamic business environment. We carter to develop management professionals through qualitative education, to meet the emerging challenges of the business environment. "
Sandip Kar Test Institute                  ,N/A,N/A,Kalikapur,68 2c Road,Delhi, 700068,India,,Java Script,"
	xchxjkcjhxcjkhxckj"
Erudite Enterprise                  ,N/A,N/A,Alambazar,"148/2, M. N. K Road (South), Baranagar,",Delhi, 700035,India,https://www.myprivatetutor.com/userfiles/centers/center145148497614569.jpg,"All Subjects, Biology, Chemistry, Computer, English, EVS, Geography, Hindi, History, Language, Mathematics, Physics, Science, Special Education, Accountancy, Algebra, Anatomy, Arts Group, Bengali, Botany, Business Organisation, Business Studies, Commerce Subjects, Computer Science, Economics, Educat... More [+]","
	Erudite Enterprise is a reputed tutorial/coaching based in the city of Kolkata for school and college level segment/subjects and specializing in competitive examinations and related based topics. We provide complete preparation for 2016 exams. We cover all the relevant topics and hold classes per/week. We hold special classes for weaker student and also Daily/weekly classes for practice purpose. Our center also conducts Crash course/Demo for students of all standards and competitive exams/test papers for the same."
Bafel Academy                  ,N/A,N/A,Salt Lake,"Sigma Towers, DN-2 Sector 5, Unit 901, 9th Floor, Kolkata 700091",Delhi, 700091,India,https://www.myprivatetutor.com/userfiles/centers/center1446697239.gif,"Business English, Effective Communication, IELTS, Spoken English, English, Project Management, Interview Skills, Personality Development, Presentation Skills, Soft Skills","Language classes for English conversation, Personality development, Voice and Accent, IELTS and TOEFL. We are working for a long time specialising in English speaking and Communication skills training. We have over 70 centers all across India. We offer basic, advanced, comprehensive and customised courses in English speaking, Business English, Voice and Accent training, Preparation for IELTS and TOEFL, Creative writing, Interview training and Advanced GD along with Personality development courses. We also do Corporate trainings and trainings in schools."
