Name,Phone,Website,Area,Address,City,Pincode,India,Image,Category,About
Shiv Tutorials                  ,N/A,N/A,Kankarbagh,"Kankarbagh, Patna, 800001",Delhi, 800001,India,,"Advanced Excel, Basic Computer, Computer for official job, MS Office, School level computer, Tally ERP 9, ACCA, CA - CPT, CA - Final, CA - IPCC, CMA Final, CMA Foundation, CS - Executive, CS - Foundation, CS Professional, Direct Tax Laws, ICWA & ICWAI, All Subjects, Biology, Chemistry, Computer, Eng... More [+]","
	Shiv Tutorials is located in the heart of Patna, India. We are providing coaching for a wide ranges of regular courses. Shiv Tutorials has the right ambiance of learning and our trained faculties make you develop an interest in your studies. You will experience enhanced learning abilities and results through our well designed programmes. Come and join us and feel the difference !"
A.d.y.a. Law Classes                  ,N/A,N/A,Sri Krishna Puri,"House Number-19, First-floor, Montessori School Lane, Opposite To Karlo Maruti Showroom, Boring Road, Patna, 800001.",Delhi, 800001,India,,"Civil Laws, CLAT, Contract Act Laws, Criminal Laws, LLB","
	We are a law coaching institution established in Patna with a goal of enriching legal education. A.D.Y.A. Law Classes is an upcoming coaching institution aiming to bridge the gap between the legal education and the practicing world. It ensures that its students stand firm and high in the legal arena. It provides opportunities to students towards development in all spheres of law. We are not typical law coaching institute which imparts only theoretical knowledge but imparts practical legal knowledge too. It tries to provides coaching on each and every subject of law of any course."
Amit Gupta Classes                  ,N/A,N/A,Kankarbagh,"Deo Sidhi Plaza, Kankarbagh Colony More, Near Jalan Shop, Patna",Delhi, 800020,India,,"B.Com Tuition, Banking & Finance, Costing, Direct Tax, Indirect Tax","
	We have more than 8 years experience in corporate environment. We help the student in the field of Financial Accountancy, Corporate Accountancy, Cost Accountancy, Financial Management, Taxation."
Maa Sharde Coaching Centre                  ,N/A,N/A,Buddha Colony,"At Post Dhanga West Via Kaluahi Madhubani, Buddha Colony, Patna",Delhi, 847229,India,,Mathematics,"
	At Maa Sharde Coaching Centre, we welcome students who are prepared to interface their experience and diverse backgrounds with our high-end educational programmes. Through our comprehensive programs, we contribute in their transformation to a developed personality prepared to face not only competitive examinations but also succeed in modeling successfully their respective career paths."
Gangotri Samajik Seva Sansthan                  ,N/A,N/A,Bahadurpur,"Kankarbag,Patna",Delhi, 800001,India,,"Biology, Chemistry, Hindi, Physics, Zoology","
	Gangotri Samajik Seva Sansthan as an institute has been setup by academicians who are extremely passionate about education and believe in more than just teaching. We are dedicate to improve the quality of education currently being imparted to student who are about to choose their future careers. We believe in mentor ship and in facilitating our student in taking important career discussion."
Vibrant Conceptual Physics                  ,N/A,N/A,Bazar Samiti,"Front Of Deepsikha Gas Godown, Main Gate Bazar Samiti,",Delhi, 800006,India,,Physics,"
	The primary aim in starting this institute was to impart technical education to engineering students in the real sense by implying on the needs and application of the engineering subjects and not just on formula and mugging by rote. Our approach to education is very pragmatic with completely holistic teaching methods ensconced inside an idealistic mantra."
Educonf Technologies                  ,N/A,N/A,Kankarbagh,"A-146, Shyam Sharda Kunj, 
P.C Colony, Behind Old Tiwari Bechar Petrol Pump,
Kankarbagh, Patna-20, Bihar",Delhi, 800020,India,,N/A,"
	Educonf Technologies is established to serve participants with best of education. The intensive coaching program is dealt with diligence and support for superior leaning. The institute aims at the best possible manner to contribute for students development and guidance. The courses are directed by qualified faculties with their best gained experience and knowledge."
Gencor                  ,N/A,N/A,Rajendra Nagar,"Road No 3, Rajendra Nagar",Delhi, 800016,India,https://www.myprivatetutor.com/userfiles/centers/center1453979675.jpg,"3D Max / Maya, AutoCAD  Training, HTML Training, Web Designing, .Net, C, C++, C# (C Sharp), Java and J2EE, Advanced Excel, Basic Computer, MS Office, Tally ERP 9, Robotics","We conduct four weeks / six weeks Training Program for Students of B.E./ B.Tech./Diploma in Engineering and M.C.A.

Our Training has been appreciated by Students| Colleges | Universities which has helped the students in enhancing their career prospects.

Training Platforms Provided By GENCOR:

1. For CE/ME/ECE / EEE Students : Embedded Systems & Robotics With PCB Designing 
2. For CE/ME/ECE / EEE Students : AutoCAD | 3Ds Max | Catia - Civil | Mechanical | Electrical | Architecture | Shipping | Aeronautics
3. For CS/IT /ECE Students: Computer Networking - CCNA 
4. For CS/IT Students: Computer Networking - CCNA | Linux | Java | Dot Net | Web Designing

* We also provide Project Training required by colleges as part of their academic curriculum."
Engineers Academy                  ,N/A,N/A,Kankarbagh,"Magadh Naresh 4 Floor, OPP KFC",Delhi, 800020,India,https://www.myprivatetutor.com/userfiles/centers/center1452677672.jpg,"Civil, Electrical, Electronics, Mechanical, B.Tech Tuition, M.Tech Tuition, IES Exam, MPPSC, PWD & CPWD, UPSC Exam, MPSC, UGC Net","
	Engineers Academy is a leading Educational institution based in Various Parts of India. A venture of the renowned Engineers Academy group, the Institute has established itself as a high quality education provider with prime focus on holistic learning and imbibing competitive abilities in students. Engineers Academy is for the commitment of quality in education as to bring out the best among best. The Institute prides itself in being the only multi-discipline class room in the various parts of India, spread over 15 centres and equipped with world class facilities. Engineers Academy promises to become one of the India's leading Institute with an acknowledged reputation for excellence in research and teaching and Teaching Methodology. With its outstanding faculty, world class teaching standards, and innovative academic programmes, Engineers Academy intends to set a new benchmark in the Indian education system. Our R & D cell has developed a 'Full-Proof' methodology to prepare our student for IES, GATE & PSU's Exam. It builds up the student's knowledge, confidence, mental & emotional stability. Once a student has enrolled for our courses he needs no external help."
Smv Academy                  ,N/A,N/A,Patna Airport,East Boring Canal Road,Delhi, 800001,India,https://www.myprivatetutor.com/userfiles/centers/center1451728950.png,"Digital Marketing, Java Script, PHP and MySQL, Wordpress Training","
	SMV Academy is the Best Training Institutes in Patna, we firmly believe in empowering young minds with skills and enlightening them with the knowledge to be the future leaders.SMV Academy believes in creating IT professionals by training our students in our various segments of Information Technology. Our training aims in teaching & understanding features and functionality of software courses."
Icetl                  ,N/A,N/A,Gulzarbagh,"2nd Floor, Laxmi Pustakalaya 2nd Floor, Laxmi Pustakalaya Campus, Navin Kothi, Opp. Khuda Bhaksh Library, Ashok Raj Path",Delhi, 800004,India,https://www.myprivatetutor.com/userfiles/centers/center1446012809.jpg,"Android Training, AutoCAD, BCA Subjects, C, C++, Cloud Computing, Data Structures, Embedded Systems, Java and J2EE, MCA Subjects, Networking, Perl Programming, PHP and MySQL, Programming Language, Python Programming, Robotics, Selenium Training, Software Testing, Unix/Linux, Web Designing, Web Devel... More [+]","
	ICE Technology Lab is a leading name in the IT training industry. We are known for churning out globally competent professionals who are miles ahead of others in skill set, knowledge and ability to deliver. We have a wide bouquet of IT courses that are industry centric and job oriented. These courses have enabled many freshers find lucrative jobs and the experienced professionals advance in their career. Most of our students have proved to be productive in their endeavors from the very beginning with little or no training. "
G It Groups                  ,N/A,N/A,Gandhi Maidan,"326,3RD FLOOR, KULHARIA COMPLEX,ASHOK RAJPATH,PATNA-4",Delhi, 800004,India,https://www.myprivatetutor.com/userfiles/centers/center1445929893.jpg,"Basic Computer, C, C++, DTP, Programming Language, Computer, IT, English, Computer Hardware, Software Engineering","JOIN OUR ONE YEAR DREAM PROJECT( C,C++,JAVA,ORACLE,.NET,PHP,MYSQL AND NETWORKING )WITH 
3 MAJOR PROJECTS"
Educonf Technologies                  ,N/A,N/A,Exhibition Road,Exhibition Road,Delhi, 800001,India,https://www.myprivatetutor.com/userfiles/centers/center1444799104.jpg,"BBA Tuition, Education, IT, Mathematics, AutoCAD, CCNA Certification, Ethical Hacking, Programming Language, Computer, Electronics, Mechanical","
	Educonf Technologies is the largest IT based company in India and the only company spread across the entire education ecosystem. From schools to college skills; over last Educonf Technologies has empowered over 100 learners and educators across over many schools and colleges to imagine, think and create a better future. The company today has offices in Patna, Bihar. "
Android Tutorial Center (atc)                  ,N/A,N/A,Shastri Nagar,"128/400, Rajbanshi Nagar, Road No.1",Delhi, 800023,India,https://www.myprivatetutor.com/userfiles/centers/center1441727969.jpg,"Android Training, IT",Provides training to students of their exact fitting calibre.
Diksha Edutech                  ,N/A,N/A,Madhubani,"Station Road, Madhubani",Delhi, 847211,India,https://www.myprivatetutor.com/userfiles/centers/center1441016717.jpg,"Biology, Chemistry, Mathematics, Physics, Bank Clerical, Bank PO, Railways Exams, SSC Exams, BBA Entrance, BBA Subjects, MBA Entrance, Management Subjects","Diksha Edutech offers coaching for Bank PO, Bank Clerk, Bank Specialist Officer, Teacher Eligibility Test, CAT, MAT, LIC, FCI, Railway, Diploma in Banking, Bank KYC exam, NCFM and NISM modules of capital market, UGC NET and Board Exam. Every module focuses on imparting skill set required to crack that exam. We are also specialized in providing coaching classes for Board Exams of CBSE, ICSE and Bihar Board. "
Malhotra Commerce Classes                  ,N/A,N/A,Bhikhna Pahari,Malhotra Commerce Classes,Delhi, 800004,India,,"Accountancy, Business Studies, Economics, English, Auditing, B.Com Tuition, Costing","
	In the domain of Commerce coaching we are a renowned centre based at Patna. We provide one of the finest educational facilities for the Commerce group of students. Our classes are designed to build the students conceptual knowledge strong and also prepare them to give their best performance in the examination and beyond."
Dr.sunil Kumar's School Of Economics                  ,N/A,N/A,Boring Road,"2ND FLOOR,SATNARAYAN MARKET,OPPOSITE(KARLO) MARUTI SHORWROOM,BORING ROAD,PATNA-1",Delhi, 800001,India,,"Economics, NET, SET, UGC Net","
	We are an exclusively Economics institute in Patna and providing specialised Economics guidance for students right from standard 11th to Masters level along with preparation for JNU, DSE, JMI, BHU, UGC NET (JRF) /SET along with Pre-Ph.D. Test (PRT)."
Weobworld                  ,N/A,N/A,Gandhi Maidan,Near Gandhi Maidan,Delhi, 800006,India,,"IT, Advanced Excel, Basic Computer, C, C++, Dreamweaver, Facebook Applications, HTML Training, Java Script, MS Office, PHP and MySQL, PL/SQL, School level computer, Web Designing, Web Development, Wordpress Training",We provide classes in small batches. WeobWorld have been teaching students with innovative methods which helped almost all of my past students to secure full or almost full marks in their exams. We have our programmes customized for your needs and aimed at building a string foundational knowledge of the subjects. 
St. Xavier International School                  ,N/A,N/A,Boring Road,Patna Boring Road,Delhi, 841226,India,,"English, EVS, Mathematics, Science, Spoken English, Karate, Bharat Natyam",Its a CBSE school of midddle level learning. Started our journey with the dream to impart education of high standard and do our bit to the advancement of our country. Since then we are carrying on with untiring efforts. Students get to learn from well designed curriculum and all other support for their best development.
Xpertgenie Institute                  ,N/A,N/A,Boring Road,"3rd Floor Near Usha Showroom,kalambag Chowk, Muzaffarpur",Delhi, 843102,India,,"English, Spoken English, TOEFL, Anchoring & News Reading",The faculty should have good communication skills.
Veta Patna                  ,N/A,N/A,Boring Road,"Kumar Tower, 3rd Floor, Near Boring Road Crossing",Delhi, 800001,India,https://www.myprivatetutor.com/userfiles/centers/center1420619406.jpg,"Corporate Communication, Effective Communication, IELTS, Spoken English, Body Language, Business Etiquette, Dressing Codes, Group Discussion, Interview Skills, Negotiation Skills, Personality Development, Presentation Skills, Public Speaking, Resume Writing, Selling Skills, Soft Skills, Telephonic S... More [+]","
	When you come Veta 'English' is no more a virgin land. We teach you with diligence and care; enabling you to master every lingual basic of the language. Veta has imparted knowledge to more than 35 lakh learners. With strong logistic support, effective management information system Veta has now become the first choice of not just individuals but also corporate houses."
Icfe Patna                  ,N/A,N/A,Indrapuri,"West Inderpuri, Sipra",Delhi, 800020,India,https://www.myprivatetutor.com/userfiles/centers/centers14230474017688.jpg,"B.Com Tuition, B.Sc Tuition, BA Tuition, Banking & Finance, BBA, BCA, M.Tech Tuition, MBA, MCA, Interview Skills, Personality Development, Resume Writing, English","
	The mission of ICFE is to prepare candidates with quality, meaningful tutoring experiences to assist them in becoming proficient in all the areas essential to excel in all aspects of life. ICFE Patna which works with the motive of serving a broad section of the society and is among the leading institutions in the given field. "
Mahendras Boring Road                  ,N/A,N/A,Boring Road,"Krishna Shiv Enclave, Roop Bhawan Campus, East Boring Canal Road, Near Panchmukhi Hanuman Mandir",Delhi, 800001,India,https://www.myprivatetutor.com/userfiles/centers/center1420719860.jpg,"Basic Computer, MS Office, Tally ERP 9, Corporate Communication, Effective Communication, Spoken English, Interview Skills, Presentation Skills, Public Speaking, Soft Skills, GATE Exam, GRE, TOEFL, Telephonic Skills","
	Mahendra’s Boring Road serves you as the best institute when it somes to preparatory coaching for the bank and insurance competitive exam. Along with primary preparatory coaching we also have personality development and interview skill classes. As you step out of the institute our comprehensive course shall make you completely ready to face the world outside."
Mahendras Frazer Road                  ,N/A,N/A,Fraser Road,"Shop No. 219 To 223, 3rd Floor, Pandey Mall, Above Vishal Mega Mart, Near Times Of India Building, Frazer Road, Patna",Delhi, 800001,India,https://www.myprivatetutor.com/userfiles/centers/center1420719813.jpg,"Basic Computer, MS Office, Tally ERP 9, Corporate Communication, Effective Communication, Spoken English, Interview Skills, Presentation Skills, Public Speaking, Soft Skills, GATE Exam, GRE, TOEFL, Telephonic Skills","
	Mahendra’s Frazer Road is the leading institute of this area. The institute works with the motive of serving a broad section of the society. The Institute's mission is to prepare candidates with quality, meaningful tutoring experiences to assist them in becoming proficient in all the areas essential to excel in all aspects of life."
Mahendras Kulharia                  ,N/A,N/A,Lal Bagh,"223 To 229, 2nd Floor, Kulharia Complex, Near B. N. College, Patna",Delhi, 800004,India,https://www.myprivatetutor.com/userfiles/centers/center1420719789.jpg,"Basic Computer, MS Office, Tally ERP 9, Corporate Communication, Effective Communication, Spoken English, Interview Skills, Presentation Skills, Public Speaking, Soft Skills, GATE Exam, GRE, TOEFL, Telephonic Skills","
	Mahendra’s Kulharia gives you a kind of education which is very essential for the very next step of your life. Experienced teachers present here shall guide you with utter proficiency. Updated and detailed course material provided by us shall help you in getting full grip of your subjects."
Mahendras Muzaffarpur                  ,N/A,N/A,Mithapur,"Opposite City Life Mall, Near Jubba Sahini Park, Club Road, Mithanpura, Muzaffarpur, Bihar",Delhi, 842002,India,https://www.myprivatetutor.com/userfiles/centers/center1420719706.jpg,"Basic Computer, MS Office, Tally ERP 9, Corporate Communication, Effective Communication, Spoken English, Interview Skills, Presentation Skills, Public Speaking, Soft Skills, GATE Exam, GRE, TOEFL, Telephonic Skills","
	Mahendra’s Muzaffarpur is the best bank and insurance competitive exam coaching centre in the area. Many students have touched the warmth of success after completing their course with us. Our previously passed successful students come to our campus and special interaction session with them are held for the new students to clarify their remaining doubts regarding the competitive examination."
Mahendras Purania                  ,N/A,N/A,N/A,"Courses:Basic Computer, MS Office, Tally ERP 9, Corporate Communication, Effective Communication, Spoken English, Interview Skills, Presentation Skills, Public Speaking, Soft Skills, GATE Exam, GRE, TOEFL, Telephonic Skills",Delhi, 226007,India,https://www.myprivatetutor.com/userfiles/centers/center1420718759.jpg,N/A,"
	We must be exceptionally prudent about the decisions we make and the actions we take in the present. Our todays decision shall give us light or darkness in the future. When you decide to appear in the competitive exam of the banks / insurance, then for preparation we are the best option for you to choose. One among the best institutes in the area is Mahendra's Purania."
Mahendras Darbhanga                  ,N/A,N/A,Darbhanga,"Vikram Chambers, Top Floor, Mirzapur Main Road, Near Malechh Mardani Temple, Above Andhra Bank, Darbhanga",Delhi, 846004,India,https://www.myprivatetutor.com/userfiles/centers/center1420717801.jpg,"Basic Computer, MS Office, Tally ERP 9, Corporate Communication, Effective Communication, Spoken English, Interview Skills, Presentation Skills, Public Speaking, Soft Skills, GATE Exam, GRE, TOEFL, Telephonic Skills","
	It is us who stop ourselves from expanding the horizons of our knowledge with self-doubt or other social, emotional, or economic constraints. Here at Mahendra's we believe that ""First Step Taken is Half The Battle Won"". Importance of education in society is indispensable and cohering, which is why society and knowledge cannot be ever separated into two distinct entities."
