Name,Phone,Website,Area,Address,City,Pincode,India,Image,Category,About
Bkg Academy                  ,N/A,N/A,Shankar Nagar,"Street No. 08, New Shanti Nagar, Adjacent To Shankar Nagar, Raipur, 492001",Delhi, 492001,India,https://www.myprivatetutor.com/userfiles/centers/center1462602434.jpg,"Chemistry, Commerce Subjects, Economics, Mathematics, Physics","
	BKG Academy Raipur was conceptualised owing to continuous deterioration of the quality of formal education and the lack of necessary useful life skills. According to science, the entropy (disorder) of the universe is increasing, then the human society cannot remain unaffected but knowledge of the reasons of this disorder may lead to some solution, at least partially, if not completely. The entropy of our education system has also increased in line with the society at a very fast rate. This has resulted in the phenomenal growth of the number of so-called educated human-resource but from the point of view of quality or development in totality it is far far behind. BKG Academy Raipur is one such effort and experiment where, it is targeted to update the quality of education and skills of students by learned, experienced and dedicated team of experts in education and skills. BKG Academy is an Institute for Education and Skill Development under the Aegis of BKG Education Society, Raipur. The BKG Academy has full support of a team of Experienced and Dedicated Education and Skill Development Experts."
Time Bilaspur                  ,N/A,N/A,Bilaspur,"Shop No. 403,3rd Floor, Karbala Road, Near Bus Stand, Bilaspur",Delhi, 495001,India,https://www.myprivatetutor.com/userfiles/centers/center146252137516025.jpg,"MBA Entrance, IIFT, SNAP, TISSNET, XAT","Triumphant Institute of Management Education Pvt. Ltd. (T.I.M.E.) is India's leading test-prep institute with a pan-India presence and is headquartered at Hyderabad. Established in 1992, T.I.M.E. today operates out of 236 offices located in 112 towns and cities across the country. Over 40 IIT/IIM graduates form part of the core team at T.I.M.E.."
Sids                  ,N/A,N/A,Bhilai,208 Zonal Market Sector 10,Delhi, 490020,India,,"Accountancy, Business Organisation, Business Studies, Commerce Subjects, Economics","
	The mission of our institute to serve the interests of all prospective commerce student by providing professional integrity, quality standards and world-class education for them to succeed professionally in life."
Mathemetica                  ,N/A,N/A,Telibandha,Street No-1 Telibandha,Delhi, 492006,India,https://www.myprivatetutor.com/userfiles/centers/center145933930415736.jpg,"AIEEE, IIT JEE Mains, Mathematics, MCA Entrance Exam (JECA)","
	As an institute MATHEMETICA helps the students to prepare for their school level academics along with Engineering Entrance & IITJEE. The programmes are conducted covering the full curriculum through explanation of each and every topic with great detail. All the students needs of learning are attended with good expertise and care."
Kidz Castle Pre School                  ,N/A,N/A,Devendra Nagar,C-164 Sec-1 Devendra Nagar Raipur Chhattisgarh,Delhi, 492001,India,https://www.myprivatetutor.com/userfiles/centers/center145974882415403.jpg,"Slow Learners, Learning Disabilities",C-164 Sec-1 Devendra Nagar Raipur Chhattisgarh
"Arena Animation, Raipur                  ",N/A,N/A,Civil Lines,Arena Animation Raipur,Delhi, 490020,India,https://www.myprivatetutor.com/userfiles/centers/center1455966820.jpg,"2D Animation, 3D Max / Maya, Graphic Designing, Web Designing, Digital Marketing, Drupal, Java Script, PHP and MySQL, Advanced Excel, Basic Computer, Computer for official job, MS Office","

		E-books 

		Study material and Video tutorials
"
A-1 Info System                  ,N/A,N/A,Shankar Nagar,"A-1 Info System, Krishna Plaza, First Floor 101, Opposite Binda Sonkar School And Shiv Vatika",Delhi, 492001,India,https://www.myprivatetutor.com/userfiles/centers/center1455523663.jpg,".Net, C, C++, Java and J2EE, Visual Basic, AJAX Training, Digital Marketing, Java Script, PHP and MySQL, Basic Computer, Computer for official job, MS Office, School level computer","

		Basic: - Operating System and its Application Software, MS Office, Internet, Social Media.

		Programming Language: - C, C++, VB, Java, Advanced Java, Dot Net, PHP, Markup Language, Scripting Language, and CSS.Database: - SQL Server, SQL, PL/SQL, MySQL, Oracle.

		Web Development: - Complete Web Development using Tools and Coding with Database.

		Software Development: - Desktop and Network Software with Database.

		Android Application Development: - Android Studio with SQL Lite.

		Digital Marketing: - SEO, SMO, Ads and Promotion.

		Customized Package: - Students or Clients Prepared List of Subjects are Delivered.

		Hardware and Networking: - Assembling, Installation, Troubleshooting, Networking, Client - Server Architecture Setup, Server Configuration and Maintenance.

		Application Software: - Corporates Applications Training.Corporate Training: - Corporate Training at Client Site for Desired Subjects.

		All Computer Subjects of: - MCA, BCA, PGDCA, DCA, BE Computer Science and IT, Bsc IT, B.Com and Other Computer Courses of Universities and Institutes.
"
L.s.academy                  ,N/A,N/A,Bhilai,"Shop No. 533, ""B"" Market, Sec 6, Bhilai",Delhi, 490001,India,https://www.myprivatetutor.com/userfiles/centers/center1454614551.jpg,"CA - CPT, CA - IPCC, CMA Foundation, CMA Intermediate, Accountancy, Commerce Subjects, Costing, Economics, B.Com Tuition, Direct Tax, Financial Management, BBA Subjects, Management Subjects","

		Teaching based on student's ability 

		Systematic approach on studies 

		Individualized, customized learning plan 

		Guidance student to bright future 

		Proven success 
"
Code Academy                  ,N/A,N/A,Mowa,"CODE ACADEMY, 5TH FLOOR, USHA PRIDE, MOWA",Delhi, 492001,India,,"IT & Computer Subjects, Computer Science, Mathematics, .Net, C, C++, Java and J2EE, Shell Scripting","
	 "
Educadd - Raipur                  ,N/A,N/A,Rajnandgaon,"B1/38 , First Floor ,Lokmanya Housing Society, Near Gol Chowk, Rohinipuram",Delhi, 492010,India,https://www.myprivatetutor.com/userfiles/centers/center1451237546.jpg,"Auto CAD, Civil, Electrical, Mechanical, Facebook Applications","Educadd Certified Instructor program ensures trainings, update trainings and rigorously monitor the performance of trainers. Only an ECI is authorized to deliver trainings to our students.
We offer Ultra-modern training lab with all the necessary facilities.
Training imparted only on genuine software with full functionalities.
Flexible batch timings & Small batch size which assure maximum attention to students.
100% Placement assistance.
At EduCADD we have a technical team dedicated to course material development. They are a team of engineers and industry veterans who keep close interaction with industry to understand new developments and trends in the industry and make sure the new versions of course material is released as and when new version of software is released.
Live project work to encourage the creativity and develop expertise
Certification exams directly from the software manufacturers on completion of courses.
Our certificates carry a hologram and a unique certification number which ensure authenticity of participant. Our certificates are widely accepted by employers worldwide.
Special skill development programmes on weekends."
Xenuine Technologies                  ,N/A,N/A,Bhilai,"Smriti Nagar, Bhilai",Delhi, 490020,India,https://www.myprivatetutor.com/userfiles/centers/center1449953341.png,".Net, AutoCAD, Big Data & Hadoop, Java and J2EE","
	XEEE, a unique model of Xenuine Technologies, is committed to the development of Youth. We deliver knowledge and skills required for the students to enhance their employability and to effectively take on their corporate life and personal life.Our teaching and feedback methods are open and encourage participation. Regular teacher-student-parents interactions are held to update them on current and anticipated changes in the performance of the students, and to bring out constructive suggestions for further improvement."
Innovation Classes                  ,N/A,N/A,Umang Colony,"2nd Street , Behind Case Construction , Kushalpur  Chowk",Delhi, 492001,India,https://www.myprivatetutor.com/userfiles/centers/center1448474952.png,"Chemistry, Computer Science, Mathematics, Physics, AIEEE, Law Entrance, Defence Exams","
	We have following specialities:-

	   Excellent notes prepared by experienced professor

	•   Regular test series after completion of each topic

	•   Completion of entire syllabus well before the exam

	•   All study material in printed form free of cost

	•   Personal attention to each and every student

	•    100% result is our first motto"
Danieducation                  ,N/A,N/A,Avanti Vihar,Raipur 492001,Delhi, 492001,India,https://www.myprivatetutor.com/userfiles/centers/center1447577275.jpg,"All Subjects, Chemistry, English, Science, Economics, Mathematics, NTSE, Physics, B.Ed Tuition, Polytechnic","
	- Mock tests

	- Self prepared notes

	- One to one tutoring"
Communication Labs                  ,N/A,N/A,Byron Bazar,"1, Jaggi Complex, Dhamtari Road,",Delhi, 492001,India,https://www.myprivatetutor.com/userfiles/centers/center1446786307.jpg,"Spoken English, English, Leadership Skills, Body Language","Communication Labs is a reputed tutorial/institute based in the city of Raipur for Business training, English speaking, Grooming courses, Languages etc. Our programmes has been running successfully for a long time and students passed through us carry our brand of expertise and add to the development of our country."
Quarks Institute                  ,N/A,N/A,Devendra Nagar,LIG 279 Sec-2,Delhi, 492001,India,,"Biology, Chemistry, Mathematics, Physics, Logic, HTML Training, PHP and MySQL, Web Designing, Web Development","Quarks Institute is a Raipur based educational centre for Science coaching. We have Physics, Chemistry, Maths (PCM) for classes 9th 10th 11th 12th. We have free trial classes starts from 10th August (Timing 5 - 8pm). Join our programme and build a good foundation in the Science subjects."
Onet Infotech                  ,N/A,N/A,Bhilai,"B-498, SMRITI NAGAR BHILAI",Delhi, 490020,India,https://www.myprivatetutor.com/userfiles/centers/center1444729291.jpg,"IT & Computer Subjects, Computer Science, Electronics, C, C++, DBMS & RDBMS, Java and J2EE, Visual Basic, Computer","
	ONet Infotech is a leading provider of software solutions in the Bhilai. Grab the opportunity to learn with an ISO 9001:2008 Certified Private Limited IT Company. We are providing Industrial Training, vocational training and internship opportunities for students of B.E. and B. Tech. We'll help you to enhance your skill set and bring out the best in you. Get the hands-on experience of working on live projects. No one else trains you better..!"
Shikhar Academy                  ,N/A,N/A,Mowa,Shikhar Academy Raj Chambers Besides Mowa Ove Bridge,Delhi, 492001,India,https://www.myprivatetutor.com/userfiles/centers/center1442642568.jpg,"All Subjects, Biology, Commerce Subjects, Mathematics, Physics, Spoken English","We a premier institute for IIT JEE, Medical and Commerce coaching programmes. Situated at Raipur we are one of the finest coaching programme in the locality. Our batches are small and we provide attention to each students progress."
Jadhav Academy                  ,N/A,N/A,Mowa,"Aman Nagar Mowa, Raipur",Delhi, 492001,India,,"Mathematics, B.Sc Tuition, BCA Tuition","Jadhav Academy deals only with Mathematics for 10th to 12th standard, BCA, B.SC and engineering Mathematics for many years. Our ptrogrammes are well designed and are imparted by competent faculties with individual attention."
Mahendras Raipur                  ,N/A,N/A,Pandri,"Arihant Tower, 3rd Floor, Shop No. 1234, In Front Of Mat University, Near Ganpati Hotel Pagariya Complex, New Bus Stand, Pandri, Raipur",Delhi, 492004,India,https://www.myprivatetutor.com/userfiles/centers/center1420716499.jpg,"Basic Computer, MS Office, Tally ERP 9, Corporate Communication, Effective Communication, Spoken English, Interview Skills, Presentation Skills, Public Speaking, Soft Skills, GATE Exam, GRE, TOEFL, Telephonic Skills","
	Mahendra’s Raipur gives you the best educational facilities in this area. Many changes takes place in the individuals for good, as they pass through the various stages of development at our institute. A complete learning experience is caused at the Mahendra's Raipur."
Sure Success Point                  ,N/A,N/A,Jawahar Nagar,Chndani Chowk Jagdalpur,Delhi, 494001,India,,"Biology, Chemistry, Mathematics, Physics, IIT JEE Mains, Medical Entrance Exams, MicroBiology, Electronics","
	We prepare the students following the syllabous of the concerned exam through class lectures, rectification of problem areas, monitoring of progress etc and our students have found our classes very rewarding. CBSE and ICSE students of class ten to twelve are provided with all round facilities."
Blessed Coaching Institite                  ,N/A,N/A,Umang Colony,"Vasundhara Colony, Ambikapur",Delhi, 497001,India,,"Biology, Chemistry, English, Physics, Law Entrance, Spoken English"," To enable the students in gaining a strong foundation of knowledge and build all the required skills to get ahead in their career quest is learnt from expert trainers. A wide ranges of Test preparation programmes, school level subjects are offered ."
Catalyst Education                  ,N/A,N/A,Shankar Nagar,"Opp Vidya Hospital, Raipur",Delhi, 492001,India,https://www.myprivatetutor.com/userfiles/centers/center1446805384.png,"Biology, Chemistry, Mathematics, Physics, Zoology, Medical Entrance Exams","It is a leading institute for all board coaching programme fro class nine to twelve. The centre is run by prominent educationalist, building students lives for a long time. Well managed & student oriented teaching methodology are incorporated for the best outcome."
Movangan                  ,N/A,N/A,Civil Lines,"Next To Swastik Nursing Home, End Of Jal Vihar Colony, Shyam Nagar Raipur",Delhi, 492006,India,,"Creative dance, Salsa, Western Dance","
	Movangan is Chhattisgarhs first professional dance academy which promote performing art among the young and not so young. Hip-Hop, contemporary, Jazz, Salsa n much more. Founded by an expert choreographer Tushar Joshi pass out from the top institute of India Shiamak Davar Institute of  Performing Arts. Learned house from Prosenjit Kundu & Tony from LA. "
Raman Coaching                  ,N/A,N/A,Civil Lines,"Mishra Building, Behind Shivaji Statue, Tatyapara Chowk",Delhi, 492001,India,,"Zoology, Medical Entrance Exams, UPSC Exam, Statistics, SSC Exams, Sociology, School Service Commission, Railways Exams, Public Administration, Psychology, Political Science, Physiology, Physics, IIT JEE Mains, Philosophy, PG Medical, Law Entrance, MicroBiology, MBA Entrance, Mathematics, Mass commu... More [+]","Raman Coaching came into existence with the beginning of new century in Raipur. It provides coaching classes for wide range of courses with an aim to see students excelling in all the Government as well as private sector jobs. Preparation programmes are done in areas like, Bank PO, Clerk, SSC, Railway, IAS and more."
Achievers Class                  ,N/A,N/A,Umang Colony,"Sector 3, Near Reshape Gym",Delhi,,India,,"Zoology, Statistics, Sociology, Social Studies, School level computer, Psychology, Political Science, Physiology, Physics, Philosophy, Mathematics, Logic, IT & Computer Subjects, History, Hindi, Geography, Food & Nutrition, Fashion Study, EVS, English, Education, Economics, Costing, Commerce Subject... More [+]","Many years of teaching experience
Inculcate moral values among students
well versed in subject matter"
Alfa Computers                  ,N/A,N/A,Civil Lines,Chhura Dist Gariyabandh Chhattishgarh,Delhi,,India,,"Zoology, Statistics, Spoken English, Sociology, Social Studies, School level computer, Public Speaking, Psychology, Political Science, Physiology, Physics, IIT JEE Mains, Philosophy, Mathematics, Logic, IT & Computer Subjects, History, Hindi, Geography, Food & Nutrition, Fashion Study, EVS, English,... More [+]",I don't have any faculty . I need teacher
Korba Coaching Center                  ,N/A,N/A,Korba,"C-658, Kaveri Vihar, PO _ Jamnipali,",Delhi,,India,,"English, Accountancy, Botany, Business Maths, Chemistry, Costing, Economics, Education, Geography, Hindi, History, Mathematics, Physics, Physiology, Political Science, Psychology, Sociology, Zoology, Biology, Statistics, IIT JEE Mains, EVS, Food & Nutrition, Business Studies, Philosophy, Bio Technol... More [+]","If you need expert guidance and preparation assistance in your studies we are the right place. Our areas of expertise lies in IIT JEE, AIEEE etc. Our classes are aimed at building strong concepts in all the topics of your subjects and enable you to write your examinations as per the desired standard."
Sharma Academics                  ,N/A,N/A,Shankar Nagar,"C-8, Pink City, 
Near Jaganath Mandir, 
Shankar Nagar",Delhi, 440010,India,,"English, Accountancy, Botany, Business Maths, Chemistry, Costing, Economics, Education, Geography, Hindi, History, Mathematics, Physics, Physiology, Political Science, Psychology, Sociology, Zoology, Biology, Statistics, IIT JEE Mains, Chemical, Civil, Computer, Electrical, Electronics, Instrumentat... More [+]","
	Physics is our area of forte and we have been guiding the students to achieve the best possible outcome. Here at success Point we are devoted our time and expertise to the betterment of our students in terms of knowledge and capacity building.We will identify the strength and weakness of each student individually for their studies. Our method of teaching is similar to home tuition where every student get individual attention .We welcome all the parents and students who are looking for good tutoring"
