Name,Phone,Website,Area,Address,City,Pincode,India,Image,Category,About
Career Achievers                  ,N/A,N/A,Sushrut Nagar,"1st Floor, Majumdhar Building
 Opp Of Electric Office/Indian Overseas Bank
 S.F.Road
  Siliguri- 734005",Delhi, 734005,India,,"Bank Clerical, Bank PO, IBPS, SBI Exam, SSC Exams","1st Floor, Majumdhar Building
 Opp Of Electric Office/Indian Overseas Bank
 S.F.Road
  Siliguri- 734005"
Jupiter                  ,N/A,N/A,Pradhan Nagar,Pradhan Nagar,Delhi, 734003,India,,"Algebra, All Subjects, Biology, Chemistry, Mathematics","
	Jupiter has been setup by academicians who are extremely passionate about education and believe in more than just teaching. We are dedicate to improve the quality of education currently being imparted to student who are about to choose their future careers. We believe in mentor ship and in facilitating our student in taking important career discussion. Our focus, particularly is on training student for a career in the different sector."
Topper's Institute                  ,N/A,N/A,Punjabi Para,"Goyal Plaza, 2b Second Floor,
Opposite Hotel Sachitra,
Sevoke Road,",Delhi, 734001,India,,"CA - CPT, CA - Final, CA - IPCC, CMA Foundation, CS - Foundation","
	After providing quality education to more than 50 cities in India, Topper's Institute now comes to Siliguri. It is the first institute to give CA Education. When it comes to the latest in CA-Education. Innovation was all that lacked in the hard hitting CA Education scenario way back in 1997 and was the sole thing that inspired a visionary like Bhagwan Lal to lay the cornerstone of the most successful CA- Education Center in Laxmi Nagar, Delhi. Ever since, the results produced every year challenge the changing trends and turns in the toughest CA- Examination of the many reasons that makes Topper's Institute an advantage unparalleled. Topper's Institute is dedicated to the objective of imparting the best education with knowledge based approach. Our stronghold is the fact that we complete all the courses at least 2 months before the scheduled examination. Past and present students feel and say with pride Topper's Institute is the best as it provide win-win long term relation of co-operative synergistic environment where solutions are provided to solve their specific queries by emphatic listening for overall development of personality, efficiency & effectiveness of students."
Fame                  ,N/A,N/A,Babu Para,"New Milanpally, Sukanta Sarani, Siliguri",Delhi, 734005,India,,All Subjects,"
	Fame as an institute provides counselling, coaching for commerce students, BBA and MBA, spoken english classes and Interview skills are taught to students."
Ambition Institute Of Studies                  ,N/A,N/A,Pradhan Nagar,Ambition Institute Of Studies,Delhi, 734003,India,,"Computer Science, IT & Computer Subjects, Mathematics, All Subjects, Commerce Subjects, School level computer, B.Sc Tuition, BCA Tuition, IT, C, C++, Java and J2EE, Shell Scripting, Visual Basic","
	Ambition Institute of Studies has been setup by academicians who are extremely passionate about education and believe in more than just teaching. We are dedicate to improve the quality of education currently being imparted to student who are about to choose their future careers. We believe in mentor ship and in facilitating our student in taking important career discussion. Our focus, particularly is on training student for a prospective career."
Angel Institute                  ,N/A,N/A,Hakim Para,Next To Paramount Hospital. Khalpara,Delhi, 734005,India,https://www.myprivatetutor.com/userfiles/centers/center146217535514477.jpg,"Basic Computer, Handwriting, Communicative English, Personality Development, All Subjects, School level computer, Business English, Corporate Communication, Effective Communication, Spoken English","
	We welcome students who are prepared to interface their experience and diverse backgrounds with our high-end educational programmes, for their transformation to a developed personality prepared to face not only competitive examinations but also succeed in modeling successfully their respective career paths. "
Selftutorials                  ,N/A,N/A,Pradhan Nagar,"Lokhnath Bhavan 
Seema Sarani Road, Near Rbs Club
Milan Paly",Delhi, 734005,India,https://www.myprivatetutor.com/userfiles/centers/center1449932588.png,"Advanced Excel, Basic Computer, Computer for official job, MS Office, School level computer, Tally ERP 9, Computer Science, IT & Computer Subjects, .Net, C, C++, C# (C Sharp), Java and J2EE, Perl Programming, Python Programming, Shell Scripting, Visual Basic, Digital Marketing, Java Script, PHP and ... More [+]","

		Academic interactions, assessments.

		Detailed learning process.

		Pupil-centered approach.

		Updated study material

		Committed and qualified faculty
"
Crack Gate                  ,N/A,N/A,Matigara,Mallaguri,Delhi, 734001,India,https://www.myprivatetutor.com/userfiles/centers/center1438778915.jpg,"GATE Exam, Computer, IT, Mechanical","Our institute is being run by only GATE qualified faculty
strategy have been prepared by GATE toppers
Motivational seminar By Toppers
Attractive Discount"
Fire World Dance Academy                  ,N/A,N/A,Bagdogra,Bagdogra,Delhi, 734014,India,,"Creative dance, Bollywood, Salsa, Western Dance",Fire World Dance Academy is a leading dance academy of Kolkata. Experienced and skilled dancers help the students to learn the intricacies of various dance forms. Experts of the field provide complete training of the cultural aspects and techniques of the dance forms.
Iifa Siliguri                  ,N/A,N/A,Jantanagar,"Shivmandir, Darjeeling",Delhi, 734001,India,,"Presentation Skills, Public Speaking, Telephonic Skills",IIFA Siliguri provides students with proper trainers and appropriate study methods for Customer Service. People joining the Institute are groomed in such a manner that they can receive good job opportunities.	The IIFA Institute also provides Preparation Classes for persons prepaaring for Defense Exams.
Mahendras Siliguri                  ,N/A,N/A,Jantanagar,"3rd Floor, 157 Kelsons Complex, Sevoke Road, Beside City Garden",Delhi, 734001,India,https://www.myprivatetutor.com/userfiles/centers/center1420716499.jpg,"Basic Computer, MS Office, Tally ERP 9, Corporate Communication, Effective Communication, Spoken English, Interview Skills, Presentation Skills, Public Speaking, Soft Skills, GATE Exam, GRE, TOEFL, Telephonic Skills","
	Mahendra’s Siliguri believes in grooming the student's basic capabilities while infusing in them the pure educational ethics. Education isn't how much you have committed to memory, or even how much you know. It's being able to differentiate between what you know and what you don't."
Pathfinder Raiganj                  ,N/A,N/A,N/A,"Courses:All Subjects, AIPMT, IIT JEE Mains, MAT, SAT, WBJEE",Delhi, 733134,India,https://www.myprivatetutor.com/userfiles/centers/center1420621769.jpg,N/A,"
	Pathfinder Raigunj will assume the leading position in the coaching Industry across India by 2018 and assume greater responsibility in its nurturing role of an “Academic Parent”. We know our students intimately and achieve their loyalty by exceeding their expectation. We achieve sustainable results and mutual benefits with our partners through a professional execution."
Pathfinder Jalpaiguri                  ,N/A,N/A,N/A,"Courses:All Subjects, AIPMT, IIT JEE Mains, MAT, SAT, WBJEE",Delhi, 735101,India,,N/A,"
	Pathfinder Jalpaiguri will assume greater responsibility in its nurturing role of an “Academic Parent” of the students to help them to achieve rewarding professional careers. "
Pathfinder Siliguri                  ,N/A,N/A,Hakim Para,"Bagha Jatin Bylane, Opposite College Gate No. 2, College Para",Delhi, 734001,India,https://www.myprivatetutor.com/userfiles/centers/center1420621939.jpg,"All Subjects, AIPMT, IIT JEE Mains, MAT, SAT, WBJEE","
	Pathfinder Siliguri will assume the leading position in the coaching Industry across India by 2018 and help them to achieve rewarding professional careers such that they make a firm imprint as truly global Indians. We know our students intimately and achieve their loyalty by exceeding their expectation. "
Pathfinder Balurghat                  ,N/A,N/A,Pradhan Nagar,"Nazrul Sarani, Narayanpur (near Aircel Office), Balurghat",Delhi, 733101,India,https://www.myprivatetutor.com/userfiles/centers/center1420622270.jpg,"All Subjects, AIPMT, IIT JEE Mains, MAT, SAT, WBJEE",Pathfinder Balurghat is a premier institute in the coaching Industry across India assuming  greater responsibility in shaping  its nurturing role of an Academic Parent of the students to help them to achieve rewarding professional careers such that they make a firm imprint as truly global Indians. We achieve sustainable results and mutual benefits with our partners through a professional and seamless execution.
Pathfinder Malda                  ,N/A,N/A,N/A,"Courses:All Subjects, AIPMT, IIT JEE Mains, MAT, SAT, WBJEE",Delhi, 732101,India,,N/A,"
	Pathfinder Malda knows their students intimately and has gained their loyalty by exceeding the expectations of both parents and children alike. We inspire and lead our employees through an environment of professionalism, trust, mutual respect and base our decisions on facts. We achieve sustainable results and mutual benefits with our partners through a professional and systematic execution."
Homework                  ,N/A,N/A,Deshbandhu Para,Deshbandhupara,Delhi, 734004,India,https://www.myprivatetutor.com/userfiles/centers/center14177870346194.png,"All Subjects, Bengali, English, School level computer, Spoken English","
	Your worries are over once you join our classes. At Homework we ensure that you thoroughly understand the subjects and is ready to face the examinantions. We have very good and caring teachers to cater to your all round educational needs."
Tally Academy Siliguri                  ,N/A,N/A,Hakim Para,"1st Floor, Janpath Building, Seth Srilal Market",Delhi, 734001,India,https://www.myprivatetutor.com/userfiles/centers/center1420694147.jpg,"Accountancy, Accounts, Pharma Training, Interview Skills, Personality Development, Presentation Skills, Public Speaking","
	Course fee includes

	Books

	Lifetime registration. 

	24 X 365 online service free

	100% free job assistance. 

	Offline & Online exams

	03 months free software for practice."
Study Zone                  ,N/A,N/A,Hakim Para,"Renuka Bhavan (1st Floor), Balai Das Chatterjee Road, Hakimpara",Delhi, 734001,India,https://www.myprivatetutor.com/userfiles/centers/center14082967984175.jpg,"EVS, Accountancy, Bengali, English, Sociology, GMAT, GRE, SAT, Corporate Communication, IELTS, Spoken English, TOEFL, Study in Australia, Study in Canada, Study in UK, Study in USA",Proper infrastructure
Education Hub                  ,N/A,N/A,Babu Para,Bharat Nagar,Delhi, 734004,India,,"Commerce Subjects, English, History, Social Studies, Business Organisation, Business Studies, Public Administration, BBA Subjects, Management Subjects, Customer Service, HR/Personnel, Insurance Training, Sales Training","The centre is dedicated to provide quality education to students from class nine to twelve, MBA, BBA aspirants. Its core strength lies in developing life skills preparing students for leadership, decision making & critical thinking."
Doctors Zone                  ,N/A,N/A,Matigara,"Ijhar Ansari Shiv Mandir Bazaar, Near Auto Stand Darjeeling",Delhi, 734011,India,,"IIT JEE Mains, Medical Entrance Exams, Bank Clerical, IT, Computer","Doctors Zone is a leading coaching center in Siliguri, providing test preparation coaching in various competitive examinations. students are provided with thorough exercize of the syllabous and prepare writing examination as per the desired level."
Techno Academy                  ,N/A,N/A,Pradhan Nagar,"Maya Book Stall,old Maya Stall,siliguri Jn.p.o-pradhan Nagar,dist-darjeeling, W. B.",Delhi, 734001,India,,"Physics, English, Chemistry, Biology",Deepak
Knowledge Educational Institute                  ,N/A,N/A,Ashram Para,"Rishi Villa, First Floor, 
Buddhadeb Bose Road
Ashrampara
Siliguri
734001",Delhi, 734001,India,,"Zoology, Medical Entrance Exams, Statistics, Spoken English, Sociology, Social Studies, Science, School level computer, Public Speaking, Psychology, Political Science, Physiology, Physics, Philosophy, Mathematics, Logic, Language, IT & Computer Subjects, History, Hindi, Geography, Food & Nutrition, ... More [+]",The Institute is headed by a teacher who has 6 years of experience with renowned educational Institutes of Delhi
Gen-eck                  ,N/A,N/A,Ashram Para,"Air Force Hospital Road, Guruduara Lane , Hasimara , Dist - Jalpaiguri,  W. B. Pin - 735215",Delhi, 735215,India,,"Zoology, Statistics, Sociology, Psychology, Political Science, Physiology, Physics, IIT JEE Mains, Philosophy, Mathematics, Logic, IT & Computer Subjects, History, Hindi, Geography, Food & Nutrition, Fashion Study, EVS, English, Education, Economics, Costing, Commerce Subjects, Chemistry, Business S... More [+]",Shibu Modak
La Spezia Tuition Centre                  ,N/A,N/A,Lake Town,Opposite Akashwani Bhawan Sevoke Raod,Delhi, 734001,India,,"Mathematics, English, History, Geography, Accountancy, Botany, Business Maths, Chemistry, Costing, Economics, Education, Hindi, Physics, Physiology, Political Science, Psychology, Sociology, Zoology, Biology, Statistics, UPSC Exam, SSC Exams, Defence Exams, Insurance Exams, Bank Clerical, Railways E... More [+]","
	La Spezia has become synonymous to quality learning and we have earned our credibility with the sheer force of discipline hard work and ethical practice. We are a team of inspired individuals who are committed to the cause of education and students found our classes an enriching experience.It is also kept in mind to keep our students satisfied in all respects while studying in our institute, whether those are accommodation provisions or faculty's ability to convert difficult issues into smaller ones or basic needs of the students. 
	We would also like to mention that making money is not at all our priority as the company has been into various businesses for so long, but to service the poor, backward class and deserving candidates by way of helping them to achieve their goal, that are the reason for us to come up with huge concessions in our fee structure."
Star Tutorial Home                  ,N/A,N/A,N/A,"Courses:Mathematics, English, History, Geography, Accountancy, Botany, Business Maths, Chemistry, Costing, Economics, Education, Hindi, Physics, Physiology, Political Science, Psychology, Sociology, Zoology, Biology, Statistics, EVS, Food & Nutrition, Business Studies, Philosophy, Commerce Subjects, Bio Tec... More [+]",Delhi,,India,,N/A,EXPERIENCED SCHOOL TEACHER.
Shyamal Tutorials                  ,N/A,N/A,Bagdogra,"Station More, Bagdogra, City: Siliguri
Dt. Darjeeling",Delhi, 734014,India,,"Mathematics, English, History, Geography, Chemistry, Hindi, Physics, Biology, EVS, Economics, Zoology, Accountancy, Commerce Subjects, Social Studies, Bengali","
	 Shyamal Tutorials  is an institute for school students where they will get good facility and calm studying atmosphere with a very high level of teaching. We will identify the strength and weakness of each student individually for their studies. Our method of teaching is similar to home tuition where every student get individual attention .We welcome all the parents and students who are looking for good tutoring.We have been educating students for decades and are clearly aware of their different learning requirements. We try to address these through quality learning support, the use of new approaches to teaching and learning and through an attractive and varied curriculum."
Tuition                  ,N/A,N/A,Hakim Para,"Shivalaya 2 Appartment, Hakimpara",Delhi, 734006,India,,"Mathematics, English, History, Geography, Chemistry, Hindi, Physics, Biology, UPSC Exam, SSC Exams, Defence Exams, Insurance Exams, Bank Clerical, Railways Exams, IES Exam, School Service Commission, EVS, Economics, Zoology, GATE Exam, Accountancy, Commerce Subjects, Law Entrance, IAS Preparation, P... More [+]","
	We welcome students who are prepared to interface their experience and diverse backgrounds with our high-end educational programmes, for their transformation to a developed personality prepared to face not only competitive examinations, but also succeed in modeling successfully their respective career paths. "
