Name,Phone,Website,Area,Address,City,Pincode,India,Image,Category,About
Rnc Overseas                  ,N/A,N/A,Akota,Rnc Overseas,Delhi, 390001,India,https://www.myprivatetutor.com/userfiles/centers/center144500649311960.png,"GMAT, GRE, IELTS, PTE, SAT, Study in Australia, Study in Canada, Study in Germany, Study in New Zealand, Study in USA, TOEFL, Business English, English, Corporate Communication, Effective Communication, Spoken English","RnC the immigration and student visa consultants in Vadodara is one stop solutions for all the goal achievers as it also supports them with IELTS/TOEFL Coaching by British Council and ETS TOEFL certified trainers. RnC under its roof have trained and experienced staff, which are certified with different global certification and hence are able to provide first-hand counseling and teaching experience."
Iit Tapsya                  ,N/A,N/A,Waghodia,"Shop No. 29, Krishnawelly Apartment, Amit Nagar Circle, Opp. Jay Ambe School, Sama Sawli Road, Karelibaug",Delhi, 324005,India,https://www.myprivatetutor.com/userfiles/centers/center1451449283.jpg,"Chemistry, Mathematics, Physics, AIEEE, IIT JEE Mains, AICEE, AIPMT, Biology, Botany, Medical Entrance Exams","
	IIT Tapsya is a big name in the domain of Competitive examination preparation. We provide courses such as Fast Track courses for target JEE Main 2016 ( Exam date 3rd April 2016) and GUJCET 2016 (May 2016) for 12th GSEB. For CBSE students we have Fast Track Macro Board courses for 11th class for GSEB 2nd semester and 12th class for GSEB 4th semester. Fast Track Macro Board courses for 12th CBSE students and for 11th CBSE student are conducted with full syllabus revision. Individual subject course are also available for boards and competitive exams. There is section wise micro courses available for boards and competitive exams for the students of any institute. New batches (one year programme) will commence for the academic session 2016-17."
Squre1                  ,N/A,N/A,Nizampura,"8/B, Shree Arvind, Behind Jal Jyoti Apartment, New Sama Road, Nizampura, Vadodara, 390024",Delhi, 390024,India,,"Algebra, Chemistry, Computer Science, Mathematics, Physics, Civil, Drawing, Electrical, Mechanical, Production","
	We are professional tutor with years of experience in various branch of engineering. Tutors are well trained to provide best knowledge."
Noble Group Of Education                  ,N/A,N/A,Waghodia,"Above Hdfc Bank(2nd Floor), Opp. Reliance Petrol Pump,nr Uma Char Rasta, Waghodia Road, Vadodara",Delhi, 390019,India,,"Biology, Chemistry, Mathematics, Physics, AIEEE, IIT JAM, IIT JEE Advanced, IIT JEE Mains, AIPMT, Medical Entrance Exams","
	Noble Group of Education is located in the city of Vadodara and catering in the science group. He have excellent faculties who will guide the students to overcome the barrier of examination."
Jinal Tution                  ,N/A,N/A,Rajmahal Road,"Tribhuvan Bhuvan, Near Gandhi Travels And Bob Atm, Raj Mahel Road, Vadodara, 390001",Delhi, 390001,India,,All Subjects,"
	Jinal Tution are helping students to build a strong knowledge base for the students for a long time. We have all the resources ready to serve the students for their best results."
Global Emerging Technology Institute                  ,N/A,N/A,New Sama,"C/1, Paravati Park Society,
B/h Pumeet Nagar,",Delhi, 390008,India,,SAP Certification,"
	Global Emerging Technology Institute (GETI) established with the vision of building. Competent and proficient workforce armed with the best-in-class skills for taking over the dynamic corporate world. GETI is not only a training institute, but we prefer calling it a world-class hub of emerging technologies."
Regal Academy                  ,N/A,N/A,Waghodia,"211, 2nd Floor , Sunrise Complex, Above Axis Bank, Vrundavan Char Rasta, Waghodia Dabhoi Ring Road , Vadodara 390019",Delhi, 390019,India,,"Spoken English, IELTS, TOEFL","
	Regal Academy has been setup by academicians who are extremely passionate about education and believe in more than just teaching. We are dedicate to improve the quality of education currently being imparted to student who are about to choose their future careers."
New York Academy Of Hotel Management                  ,N/A,N/A,Tandalja,"FF-11, Faiza Avenue, B/s- Green Park, Tandalja Road, Vadodara-390012.",Delhi, 390012,India,,"Computer Science, Education, English, Food & Nutrition, Hotel Management","
	New York Academy of Hotel Management, trying to provide you foreign base study in India, New York Academy of Hotel Management especially designed this programs for those students, who want to make their career bright and achieve their goal in short period of time. In this fastest growing world time is money and wasting of the time means wasting of money. We are providing option to academic students to get national and international training exposure, exposures with international business guest, students also have opportunity to learn foreign languages during academic year and at the time of industrial training."
Webmull                  ,N/A,N/A,Waghodia,C/17 Vraj Darshan Society,Delhi, 390018,India,https://www.myprivatetutor.com/userfiles/centers/center1458909280.jpg,"Drupal, Java Script, Joomla Training, Magento Training, PHP and MySQL","
	Webmull is website Development Company who think about website solution using open sources. We are focusing on next generation web design and web development with quality of work on PHP base open sources. We convert client idea(s) into a reality using PHP base web solution. Webmull started by Creative, Innovative & Communicative PHP couples who have been working in web development field since 2006. Webmull have well qualified & experienced team to success project with 100% client satisfaction which include Project Managers, Web Designers, Web Developers, QA and SEO Expert. As we think about web or website solution using open sources, we have expertise in open source like PHP, PHP base OOP, Magento, Zend, Joomla, WordPress, Drupal, CakePHP, Symfony, Code Igniter and many more. We also have done number of good projects in Web design and Graphic design with using HTML, CSS, Javascript, Bootstrap, Photoshop, Illustrator, Corel draw and many more. We already established our self into Search Engine Optimization (SEO) and Internet Marketing. Webmull also provide sharing hosting and domain registration service. Webmull also strongly believes to improve and expand business domain and knowledge by getting updated with latest trends & technologies."
Siksha Academy                  ,N/A,N/A,Gorwa,"B-41 Jaykhodyar Society,Gorwa",Delhi, 390016,India,,"Chemistry, Mathematics, Physics","B-41 Jaykhodyar Society,Gorwa"
Aaditya Academy                  ,N/A,N/A,Waghodia,"13/14/15 JAY NARAYAN COMPLEX PANIGATE,VADODARA 390017",Delhi, 390017,India,,Digital Marketing,"

		Text explanation 

		Regular Mock tests 

		Digital Classroom 

		Well-stocked library 
"
Sayta Medical Coaching Institute                  ,N/A,N/A,Waghodia,"First Floor Shop Number 10
Samarth Tower E, Sun Meelan Shops And Flates 
Waghodiya Road",Delhi, 390019,India,,Physiology,"

		Ace Infrastructure 

		Experienced Faculties

		Lab Access 
"
Unicode Technologies                  ,N/A,N/A,Jawahar Nagar,"S-17/D, Indiabulls Mega Mall, Jetalpur Road,",Delhi, 390020,India,https://www.myprivatetutor.com/userfiles/centers/center1453292701.jpg,"C# (C Sharp), Java and J2EE, Oracle Certification, ITIL Training, PMP Certification, Project Management, Software Engineering","
	Unicode Technology is a dynamic, multi skilled and vibrant talent acquisition organization culminating from the innate vision and foresighted approach to fulfill the ever changing demands of the global industry. It has primarily been brought into existence for furnishing the desired manpower thereby restricting the challenges related to HR domain. We are backed by a vast pool of highly qualified professionals having rich and diverse experience in the IT field. Our well planned and uniquely designed training model involves considerable exposure on live projects. We respect, value and cherish the association of each and every individual who is serving in our growth and progress. We consistently emphasize on team effort for accomplishing the pivotal goals and objectives of the organization. "
Pluto                  ,N/A,N/A,Vasna Road,"Sf 19/20, 2nd Floor, Shivalay Complex 2, Opp. Vasna Petrol Pump, Vasna Road",Delhi, 390007,India,https://www.myprivatetutor.com/userfiles/centers/center1451638865.png,"2D Animation, Animation, Corel Draw, Photoshop, Digital Marketing, Facebook Applications, Java Script, Wordpress Training","

		Graphic Design Training 

		Website Design Training 

		Mobile Responsive Design Training

		Web Development Training

		SEO Training 

		Digital Marketing Training 

		Social Media Marketing Training 

		Animation Pro Training 

		2D Animation Training

		Photo Editing & Video Editing Training

		WordPress Development Training 

		PHP Development Training 

		Drupal Training 

		Facebook Application Development Training

		DOT NET Training
"
Zepto Learning                  ,N/A,N/A,Ellora Park,"346, Atlantis K-10, Tower A, Sarabhai Main Road, Opp. Honest Restaurant",Delhi, 390023,India,https://www.myprivatetutor.com/userfiles/centers/center144179496911040.jpg,"English, Mathematics, Robotics","We have activity based Math and English programs for classes 1 to 5, and Science/Robotics programs for ages 7 and above. Our classes are specially designed to bring out students best potentials and help them get ahead."
Rnc                  ,N/A,N/A,Raopura,"Level-5 Samir Building, Above RA Electronics Showroom",Delhi, 390001,India,https://www.myprivatetutor.com/userfiles/centers/center1444652811.jpg,"IELTS, Spoken English, TOEFL, English, PTE, Study in Australia, Study in Canada, Study in New Zealand","
	RnC is a name with a clear vision on Youth and Education. As its known that the future depends on an educational work force, RnC is perfectionist in providing services of comprehensive and unbiased overseas education counseling. RnC provides expert exhortation to the prospective students for the courses which include Certificates, Diplomas, Undergraduates, Post Graduates and Research."
Omniscience Engineering Institute                  ,N/A,N/A,Nizampura,"Omniscience Engineering Institute, 3rd Floor, Tirthan Avenue, Opp. Devdutt Complex",Delhi, 360005,India,,"Chemistry, Mathematics, Physics, MS Office, Civil, Electrical, Mechanical, Office Administration","
	Omniscience Engineering Institute is a coaching for Diploma and Degree Engineering Classes for all branches. Our faculties are from well known institute i.e. Nirma University, L.D College of Engineering. We enrich student\'s technical knowledge by special innovative session from Industrial Expert every weekend."
Vision Academy                  ,N/A,N/A,Subhanpura,Vadodara,Delhi, 390007,India,https://www.myprivatetutor.com/userfiles/centers/center1436944076.png,"Aeronautical, Auto CAD, Bio Technology, Chemical, Civil, Computer, Drawing, Electrical, Electronics, Instrumentation, IT, Mathematics, Mechanical, Production, BBA Entrance, BBA Subjects, MBA Entrance, Management Subjects","Vision Academy is a reputed institute based in the city of Vadodara for school level subjects coaching. We provide complete tutorial programmes for CBSE, ICSE & GSEB, for class 8th to 10th, 11th to 12th Science GUJ-CET,JEE, Commerce, Mathematics, Diploma and Degree in Engineering."
Safal Education Point                  ,N/A,N/A,Kareli Baug,"Ff/sf 9, Narsinhdham Complex, Sangam Cross Road, Karelibaug",Delhi, 390018,India,https://www.myprivatetutor.com/userfiles/centers/center1426830336.jpg,"Commerce Subjects, CA - CPT, CA - Final, CA - IPCC, CMA-CPA-ACCA-CIMA, CS - Executive, CS - Foundation, CS Professional, ICWA & ICWAI","
	You have it; We know it, Let us prove it! This is the motto of Safal Group when tutoring the students for the best is our mission. We mainly provide coachng on commerce based subjects. From school to CA/CS/CWA level, we provide our tutorial guidance programs for the students' benefit. Detailed study materials are given to the students for their study purpose other than the classes. Compact classroom training is provided to all of the students."
Institute Of Advance Network Technology                  ,N/A,N/A,Waghodia,366 Kohat Enclave Pitampura,Delhi, 110034,India,,"Cisco certification, Cloud Computing, Hardware Training, Java and J2EE, Microsoft Certification, Networking, Oracle Training, RHCE Training","
	Institute of Advance and Network Technology is India's No.1 Hardware and Networking Institute. IANT is emerging as a prospectiveleader in IT education and headed to establish a landmark in Education Industry.Quality thoughts & quality trend is driving the organization to adapt latest technology& techniques. Technological growth of students is perforated with personality traits,which make them an asset for any organization. As far as IT industry is concerned, old is obsolete. we are proactive to our vendorsto launch their latest technology to be the first ones in country to introduce."
Mahendras Gorakhpur                  ,N/A,N/A,N/A,"Courses:Basic Computer, MS Office, Tally ERP 9, Corporate Communication, Effective Communication, Spoken English, Interview Skills, Presentation Skills, Public Speaking, Soft Skills, GATE Exam, GRE, TOEFL, Telephonic Skills",Delhi, 273001,India,https://www.myprivatetutor.com/userfiles/centers/center1420718270.jpg,N/A,"
	There comes a phase in life when the amount you are earning presently will seem inadequate because your aspirations and expectations from yourself would have grown considerably. To let your aspirations and expectations turn to your well set goal we train you and build your base so that you can face the world with a martial spirit within. Mahendras Gorakhpur is your only destination to success."
Mahendras Vadodara                  ,N/A,N/A,Fatehgunj,"3rd Floor, The Plaza Complex, Near Ginger Hotel, Fatehganj Main Road",Delhi, 390002,India,https://www.myprivatetutor.com/userfiles/centers/center1420716842.jpg,"Basic Computer, MS Office, Tally ERP 9, Corporate Communication, Effective Communication, Spoken English, Interview Skills, Presentation Skills, Public Speaking, Soft Skills, GATE Exam, GRE, TOEFL, Telephonic Skills","
	Mahendra's at Vadodara provide students with thorough coaching. Interactive Session with our successful students are held to motivate the present students. Complete package from study material based coaching to personality development for the interview session is provided by us. When you take the preparatory coaching from success is just a mere word."
Edwise - Alkapuri                  ,N/A,N/A,Alkapuri,"S-19, 4th Floor, National Plaza, 
R. C. Dutt Road, 
Alkapuri",Delhi, 390005,India,https://www.myprivatetutor.com/userfiles/centers/center14158589245315.png,"All Subjects, GRE, GMAT, TOEFL","
	Edwise Alkapuri, a pioneer in the field of 'Global Education' dispels all the myths and has brought the concept of overseas education to the doorstep of every student, by making it affordable & devoid of cumbersome procedures. Our excellent network with the Universities helps us to deliver our best services to our students. "
Pharmainfo                  ,N/A,N/A,Alkapuri,"Gotri Road, Alkapuri",Delhi, 380004,India,,"2D Animation, Advanced Excel, Healthcare Management, MCA",Pharmainfo gurantees 100% success by providing tutoring and guidance through classes to for GPAT examination. Our infrastructure is aptly designed to support the students needs and we ensure that each of our students get ample scope to build themselves.
Royal Classes                  ,N/A,N/A,Kareli Baug,"Second Floor, Rudraksh Complex, Nr. Motinagar, Harni Warasia Ring Road",Delhi, 390006,India,https://www.myprivatetutor.com/userfiles/centers/center14117362934379.jpg,"Biology, Chemistry, Mathematics, Physics, Statistics, IIT JEE Mains, Bank Clerical, MBA Entrance, Railways Exams, SSC Exams","Royal Classes is a name of repute in the segment of coaching for a long time. English Medium State board subjects, CBSE, ICSE students are prepared to cope up with their classes and examinations. The centre also imparts coaching for entrance exam preparation of BBA, BCA, MBA, MCA, Bank clerk and P.O., Staff Selection."
Eec Study Abroad                  ,N/A,N/A,Alkapuri,"3rd Floor, B-wing, Windsor Plaza, R. C. Dutt Road, Alkapuri, Vadodara",Delhi, 390007,India,https://www.myprivatetutor.com/userfiles/centers/center14115005604370.png,"ACT Exam, Bank Clerical, Bank PO, GMAT, GRE, IBPS, IELTS, LSAT, PTE, Railways Exams, RBI Exam, SAT, SBI Exam, TOEFL, Corporate Communication, Effective Communication, Spoken English, English, French, German, NBDE, NCLEX, OET, Study in Australia, Study in Canada, Study in Dubai, Study in Europe, Stud... More [+]","
	All kinds of overseas education assistance through training, visa guidance etc are provided at EEC Study Abroad centre. Experienced personnel provides thorough assistance to the aspirant of overseas education. IELTS, GRE, TOEFL, SAT, and GMAT, English Speaking programmes are conducted with complete facilities. "
Education Hub                  ,N/A,N/A,Kareli Baug,310-311 VIP View Complex New VIP Road Karelibaug Baroda,Delhi, 390018,India,,"Accountancy, Business Organisation, Commerce Subjects, Costing, Direct Tax, Indirect Tax, Accounts, CA - CPT, CA - IPCC, Law, Ethics and Communication","We have our institute in prime location with well equipped infrastructure and WiFi Campue.
Our structure and improvement systems ensure that knowledge and experience is shared throughout the company. Our policy of involving all our employees in both the improvement process and training schemes means that the enormous wealth of skill and experience is ultimately translated into benefit for our students and clients"
Manisha Design House                  ,N/A,N/A,Ellora Park,"301, Siddhi Vinayak Complex, Near Bank Of India",Delhi, 390018,India,,"Architecture, Study in Canada, Fashion Designing, NIFT","A premier coaching centre has proven excellence in the domain of Design, providing preparation for NATA, NID, NIFT, CEPT and other examinations. Full fledged programmes are available to build the students for meeting the standard of the examinations."
