Name,Phone,Website,Area,Address,City,Pincode,India,Image,Category,About
I-digital Training And Business Solutions                  ,N/A,N/A,Benz Circle,"D.no-40-1-94c-kanna Nagar, Behind Modern
Super Market, Benz Circle, Vijayawada	,",Delhi, 520010,India,,Advanced Excel,"
	provides digital marketing coaching, professional development and counseling for small business owners, students, entrepreneurs and self-employed professionals."
Global Soft                  ,N/A,N/A,Ibrahimpatnam,"ADDEPALLY COMPLEX 
RING CENTRE 
IBRAHIMPATNAM",Delhi, 521456,India,,"3D Max / Maya, DTP, Multimedia, Web Designing, Web Development","
	We are an inspired venture to the new age technologies on the field of Multimedia and we have aligned our thought and implementation techniques according to the nature of changing times. Our classes are focused on the enhancement of the students potentials and make them industry ready with all the key skills at their fingertips."
Sadiq Soft Skills                  ,N/A,N/A,Darga,"1st Floor, M.R.F SHOW ROOM, Podili Road Darsi, Prakasam Distrist.",Delhi, 523247,India,https://www.myprivatetutor.com/userfiles/centers/center145468036714743.jpg,"Slow Learners, Business English, Corporate Communication, Effective Communication, Public Speaking, Abacus Training, Basic Computer, Communicative English, Handwriting, Language, Mental Maths, Olympiad Exam Preparation, Personality Development, Robotics, Speech & Drama, Spell Bee Training, Leadershi... More [+]","
	Sadiq Soft Skills is based in Vijayawada specializing in English related segment/subjects. We provide knowledge about life skills. Come with us and build your strong career."
Fire Sports Tennis Academy                  ,N/A,N/A,Kadapa,"Ysr Kadapa District, Near Csi School, 
Kadapa",Delhi, 516001,India,https://www.myprivatetutor.com/userfiles/centers/center1451642611.jpg,Tennis,"
	FIRE SPORTS Academy: Kadapa Tennis @ YSR Kadapa, Andhra Pradesh FIRE Sports Tennis @ YSR Kadapa, Andhra Pradesh Professional Tennis Coaching for all Age Groups - Kids Tennis: Beginner - Students Tennis: Beginner, Intermediate - Adults Tennis: Beginner, Intermediate and Advanced levels Academy is open to children of all ages for: - Intensive Tennis program for High Performance, Advance, Intermediate and Beginners. - Physical training using the latest methods, techniques and yoga to stimulate body & mind to attain an unstinted focus to the game. - Travel guidance for tournament schedules "
Victory                  ,N/A,N/A,Ntr Colony,"G2, GROUND FLOOR, VIVEKANANDA TOWERS, OPP. NIRMALA HIGH SCHOOL",Delhi, 520010,India,https://www.myprivatetutor.com/userfiles/centers/center1451454376.png,"Slow Learners, GRE, IELTS, TOEFL, Business English, Spoken English","

		FD - Basic Course for the beginners Duration - 26 WDP - 52 WDP 

		Grammar and Spoken English Duration - 52 WDP 

		Interview Skills - Interview skills for job seekers Duration - 6 WDP 

		Professional English - English for Professionals Duration - 26 WDP 

		Fundays English - English for Children Duration - 30 WDP

		IELTS/TOEFL - Entrance exam for students going abroad Duration - 30 WDP
"
Iiht Technologies                  ,N/A,N/A,Madhura Nagar,MG Road,Delhi, 56001,India,https://www.myprivatetutor.com/userfiles/centers/center1450175189.png,"Education, IT, .Net, Big Data & Hadoop, Cisco certification, Cloud Computing, Computer Hardware","

		India’s No. 1 IT infrastructure Management Services (IMS) training company. - 

		Training solutions that fit every learning style, schedule, preference and geography

		Top quality training experience.

		State-of-the-art infrastructure

		Successful track record of excellence in training IMS and high-end networking areas 

		Up-to-date in growing with changing industry requirements.
"
Glory It Technologies                  ,N/A,N/A,Gollapudi,"Flat No. 105, Kanaka Durga Residency, Near Narayana Junior College",Delhi, 521225,India,https://www.myprivatetutor.com/userfiles/centers/center1450167060.png,"IBM Training, Java and J2EE, Oracle Training, SAP Training, Software Engineering","

		Academic interactions, assessments.

		Detailed learning process.

		Pupil-centered approach.

		Updated study material

		Committed and qualified faculty
"
Masterit Training Institute                  ,N/A,N/A,Benz Circle,"Shanti Plaza, 1st Floor, Above S B I ( N R I Branch), Benz Circle To Eluru Road, Gayatri Nagar, Vijayawada",Delhi, 520008,India,https://www.myprivatetutor.com/userfiles/centers/center1443678633.jpg,"Android Training, Big Data & Hadoop, Ethical Hacking, Informatica, Computer, IT, Business English, Corporate Communication, Effective Communication, Spoken English, Software Engineering","
	MasterIT Training Institute is the leading provider of IT Training worldwide. We offer comprehensive training programs with well integrated approach to latest and industry required IT technologies. Our primary focus at MasterIT is to bridge the gap between industry requirements and students skills. Headquartered in Addison, Texas, USA, we have offices in the Hyderabad and Vijayawada in India and very soon expanding to Americas, Europe, Oceania and Middle East. "
Data Creations                  ,N/A,N/A,Kadapa,"Joseph Lay, Kambala Cheruvu Junction,",Delhi, 533101,India,,"Accountancy, IT & Computer Subjects, Robotics, Auditing, BCA Tuition, Auto CAD, Civil, Electrical, IT",Data creations is a reputed coaching centre based in the city of Vijayawada. We work for the school students who needs assistance in their studies. Our coaching programme is an all round one where students gets to learn the subjects with depth and application abilities.
Lucky Tutoring Services                  ,N/A,N/A,Krishna Lanka,"Lalbhahudur Street, Krishna Lanka, Vijayawada-13",Delhi, 520013,India,,"All Subjects, English, Hindi, Mathematics, IT & Computer Subjects, Physics, Computer, Drawing, Electrical","
	Lucky Tutoring Services is a reputed tutorial center based in the city of Vijayawada for school and college level education. We are working with all the right resources for the students best result. Join us and enhance your studies !"
Naresh I Technologies                  ,N/A,N/A,Benz Circle,"Near D V Manar Hotel, Opposite Maanya Showroom, Above Smitha World Travels, 2nd Floor, M G Road, Vijayawada",Delhi, 520010,India,https://www.myprivatetutor.com/userfiles/centers/center1438163798.jpg,".Net, Animation, C, C++, CSS Training, Data Science, Java and J2EE, Java Script, Joomla Training, PHP and MySQL, PL/SQL, Programming Language, Spring Training, Web Designing, Web Development","
	Naresh i Technologies is a reputed institute in the fields of emerging technologies. We have all the right resources to instill and enhance your skills in the softwares. We maintain an unwavering endeavour to bring our students at the front line of the technological advancement of our country."
Nes Solutions                  ,N/A,N/A,Benz Circle,"301, Vasanth Plaza, Mahatma Gandhi Rd,
Benz Circle, Vijayawada,
Andhra Pradesh 520010.",Delhi, 520010,India,https://www.myprivatetutor.com/userfiles/centers/center1442642413.jpg,".Net, Big Data & Hadoop, Informatica, Java and J2EE, Computer, Spoken English, Computer Hardware","
	- Java

	- .net

	- Php

	- Oracle

	- Microsoft

	- Sap 

	- Webmethods"
Iq Learning Labs                  ,N/A,N/A,P&t; Colony,"#57-8-16, First Floor, Jyothi Vidhyalayam St., Opp. Mohandas Complex",Delhi, 520010,India,https://www.myprivatetutor.com/userfiles/centers/center1428113562.jpg,"Computer Science, Hindi, IT, Mathematics, .Net, C, C++, Java and J2EE, SAP Training, Auto CAD, Mechanical, Effective Communication, IELTS, Spoken English, TOEFL"," IQ Learning Club has earned its repute by its resolute focus to integrity and quality standard. We are offering quality training programmes in  Computer Education, English and Hindi Speaking and for all subjects from KG to PG and coaching for all competitive exams."
International English Language Academy                  ,N/A,N/A,Mogalrajapuram,"40-6/1-15 A /1, Second Floor, Park Road,  Beside Khandhri Road, Near Euro Kids Play School,  Revenue Colony, Mogalrajpuram",Delhi, 520010,India,https://www.myprivatetutor.com/userfiles/centers/center1425832116.jpg,"Bank PO, Effective Communication, IELTS, Spoken English, TOEFL, English, Group Discussion, Interview Skills, Personality Development, Soft Skills","
	International English Language Center of Learning and Development is an initiative to empower aspiring students with employability skills, especially spoken English skill. It is an ambitious step forward to eliminate the gap between industry skill-set requirement and the job seekers skills. PCLD (IELA - International English Language center of learning & development) is an institution established to develop students with skills and competencies that are of uncompromising quality standards. The academy has introduced an innovative Learn-Develop-Evolve-Perform and Train (LDEPT) methodology to equip students with competencies that are required for a long term successful career."
Albright Technologies                  ,N/A,N/A,Gandhi Nagar,"27-16-87, Chnr Complex, 1st Floor, Besant Road",Delhi, 520002,India,https://www.myprivatetutor.com/userfiles/centers/center1416224702.jpg,".Net, 2D Animation, 3D Animation, 3D Max / Maya, 3D Printing, Adobe Tools, Advanced Excel, AJAX Training, Android Training, AutoCAD, Basic Computer, BCA Subjects, Big Data & Hadoop, Blog Programming, Business System & Infrastructure Management, C, C++, C# (C Sharp), CCNA Certification, Cisco certifi... More [+]","Holding a central place in the IT Development hub in visakhapatnam and vijayawada, AlBright is the right choice for your clientele needs, that could meet up your day to day requirements in this global market. We also specialize in providing training services on hardware, networking, database management, security and storage management. We teach students and train them for IT profession. Also, we help re-skilling IT professionals for better job performance. All our endeavours at Albright are to create opportunities for our students to lead a better life. We placed 80% percent of the students who are learned from our Institute."
Rajasekhar's R&y; Cma Academy                  ,N/A,N/A,Labbipet,"T.kutumba Rao Street, Angels Building, Labbipet, Vijayawada - 520010",Delhi, 520010,India,,"CA - Final, CA - IPCC, CMA-CPA-ACCA-CIMA, ICWA & ICWAI, Company Laws, Contract Act Laws, Tax Laws","
	We are from Raja sekhar’s R&Y  CMA Academy . We would like to invite you to take advantage of our exclusive coaching for CMA (CWA) inter and final. We believe in providing quality education to students, help them achieve their potential and help our profession reach new heights. Keeping in mind convenience and time constraint of students and job holders we have arranged for regular batches for students"
Albright Technology                  ,N/A,N/A,Gandhi Nagar,"1st Floor,Chnr Complex,Near LIC Building,Vijayawada",Delhi, 500002,India,https://www.myprivatetutor.com/userfiles/centers/center14081775454166.jpg,"Cisco certification, Cloud Computing, Microsoft Certification, Sun Certification, Study in Australia, Study in Canada, Study in Singapore, Study in USA","Theory and practicals in Class Room Only.
In Class Room only 6 Members.
5 Days a class in the week. Weekend Exam"
The Prime Spoken English Academy                  ,N/A,N/A,Benz Circle,"2nd Floor, Beside BIG C, Opposite P And T Colony Bus Stop, Bandar Road, Near Benz Circle",Delhi, 520010,India,,"Effective Communication, IELTS, Spoken English, TOEFL, English, Event Management","The Prime Spoken English Academy is one of the best institute in Vijayawada. We have the well versed faculty, all faculties are expertise in there subjects. Basic and Advanced level English course, IELTS, TOEFL are some of the courses that the centre offers with reasonable fee."
Srinivas Tutorials                  ,N/A,N/A,Auto Nagar,"J D Nagar, Near Auto Nagar Gate",Delhi, 520010,India,,"Zoology, Social Studies, Science, School level computer, Production, Physics, Mechanical, Mathematics, Language, IT, Instrumentation, History, Hindi, Geography, EVS, English, Electronics, Electrical, Economics, Drawing, Computer, Commerce Subjects, Civil, Chemistry, Chemical, Bio Technology, Biology... More [+]","

		Renowned teachers

		Individual attention

		Ethical practice

		Academic ambience

		Feedback to guardian

		Hands on training

		Industry oriented training

		Grooming and counselling
"
Byuoyancy                  ,N/A,N/A,Eluru,"Eluru, Vijayawada",Delhi, 534007,India,,"UPSC Exam, SSC Exams, School Service Commission, Railways Exams, Production, PG Medical, Law Entrance, Mechanical, MBA Entrance, Mathematics, Insurance Exams, IT, Instrumentation, IES Exam, IAS Preparation, GATE Exam, Electronics, Electrical, Drawing, Defence Exams, Computer, Civil, Chemical, Bio Te... More [+]","
	Regular assignment

	Grooming and counselling session

	Interview skill training

	Personality development classes

	Calm and Cultured environment"
Kumar Tutorials                  ,N/A,N/A,Nellore,Vijayawada,Delhi, 521247,India,,"Zoology, Taxation, Strategic Financial Management, Statistics, Sociology, Social Studies, School level computer, Public Administration, Psychology, Political Science, Physiology, Physics, Philosophy, MicroBiology, MBA Entrance, Mathematics, Mass communication, Management Subjects, Management Account... More [+]","CA CPT, Economics, MBA, Economics and all other and Economics are learnt from the experts of the subjects. Each subject is learnt in depth through explanatory class lecture, doubt clearing session, regular assignments, independent learning, mock test, memory exercise and more."
Abdul Classes                  ,N/A,N/A,Nellore,Vijayawada,Delhi,,India,,"Web Designing, Web Development, Sun Certification, Software Tools and Applications, Digital Marketing, School Level Training, School level computer, SAP Training, Programming Language, Android Training, MS Office, Microsoft Certification, MCA Subjects, Mass communication, Hardware Training, Graphics... More [+]",3 + years teaching experience
Itop Educational Institutions                  ,N/A,N/A,Benz Circle,"40-1-97,beside New Modern Super Market, Kanna Nagar, Near Mee Seva , Benz Circle , Vijayawada-520010",Delhi, 520010,India,,"Zoology, Medical Entrance Exams, Web programming technology, Web Designing, Web Development, Urdu, UPSC Exam, TOEFL, Telugu, Taxation, Tamil, Sun Certification, Strategic Financial Management, Statistics, SSC Exams, Spoken English, Spanish, Software Tools and Applications, Sociology, Social Studies,... More [+]",We have faculty with stuff/experience nearly  5-10 years
St Annes Academy                  ,N/A,N/A,Bharathi Nagar,"St. Anne's Academy
Bharati Nagar",Delhi, 600042,India,,"GRE, GMAT, TOEFL, IELTS, MBA Entrance, Management Subjects, BBA Subjects, German, French, Bengali, Spanish, Hindi, Japanese, Tamil, Telugu, Chinese, Russian, Urdu, Marathi, Gujarati, Malayalam, Kannada, Italian, Mandarin, Sanskrit, Spoken English","
	We welcome students who are prepared to interface their experience and diverse backgrounds with our high-end educational programmes, for their transformation to a developed personality prepared to face not only competitive examinations also the other examination like IELTS, TOEFL etc, but also succeed in modeling successfully their respective career paths. "
